POI_ID,STREET_NAME,HOUSE_NUMBER,POSTAL_CODE,LAT,LON
1166095381,Schultheiß-Kiefer-Straße,4,76229,49.0075,8.49617
800764596,Erbprinzenstraße,27,76133,49.00884,8.39736
1011027091,Pfannkuchstraße,,76185,49.00986,8.34605
1193028807,Ludwig-Erhard-Allee,6,76137,49.00475,8.41641
1017890485,Kaiserstraße,89,76133,49.00931,8.40979
1178850509,Dornröschenweg,9,76189,48.99383,8.33426
1175957090,Passagehof,,76133,49.01146,8.3982
1108686993,Dammerstockstraße,1,76199,48.98431,8.40169
50610538,Kreuzstraße,5,76133,49.01003,8.40522
1001488696,Herweghstraße,4,76187,49.03127,8.34199
1039308091,Schwetzinger Straße,,76139,49.03165,8.45913
51774479,Pfinztalstraße,33,76227,48.99921,8.47096
1131727368,Lohwiesenweg,12,76135,48.98094,8.37804
1193953373,Kaiserstraße,217,76133,49.01001,8.39461
1112148238,Weinweg,39,76137,49.00817,8.44449
57569331,Am Entenfang,1,76185,49.01075,8.35989
1011104677,Durlacher Allee,,76139,49.00482,8.44626
800766640,Karlstraße,13,76133,49.01071,8.39516
1039275814,Lötzener Straße,18,76139,49.03556,8.44536
1103752732,Theodor-Rehbock-Straße,17,76131,49.00892,8.43952
1175957350,Bahnhofplatz,,76137,48.99449,8.4016
1131716827,,,76149,49.03229,8.36404
1039104941,Kaiserstraße,90,76133,49.00972,8.40168
1039206618,Wattstraße,8,76185,49.03247,8.35896
1017621223,Uhlandstraße,34,76135,49.00888,8.37466
898518214,Unterfeldstraße,6,76149,49.0462,8.3774
1070067521,Eckenerstraße,,76185,49.00157,8.34496
1202795663,B10,,76131,49.00343,8.42289
51773931,Am Wald,3,76149,49.03231,8.38826
1005164376,Am Alten Bahnhof,29,76149,49.04856,8.38041
1070067171,Kaiserallee,,76133,49.01038,8.38695
1017890531,Herrenstraße,2,76133,49.01069,8.40049
1148908854,Zeppelinstraße,17,76185,49.0031,8.35591
1108687029,Weinbrennerstraße,70,76185,49.00829,8.36799
1164824932,Sophienstraße,108,76135,49.00789,8.382
979355721,Ettlinger-Tor-Platz,1,76133,49.00564,8.4032
1164793238,Kaiserstraße,135,76133,49.00951,8.40491
1115848595,Beiertheimer Allee,2,76137,49.00437,8.40098
1005163732,Kleinsteinbacher Straße,14,76228,48.95467,8.51101
800752700,Waldstraße,24,76133,49.01042,8.39823
50609429,Zum Bergle,,76228,48.94762,8.50772
1017555765,,,76131,49.01092,8.40451
1005167655,Renckstraße,2,76133,49.00372,8.3965
1203173092,Carl-Metz-Straße,1,76185,49.01004,8.35435
1039210468,Kaiserstraße,66,76133,49.00954,8.40508
1039880448,Wilhelm-Leuschner-Straße,5,76189,48.98447,8.36281
1135445667,Ottostraße,10,76227,48.99652,8.44542
1103746351,Kaiserstraße,217,76133,49.01001,8.39462
1108694987,Hardtstraße,32,76185,49.01129,8.3567
1131731034,,,76133,49.00791,8.4009
1174481992,Tulpenstraße,,76199,48.97126,8.40478
1058556706,Kaiserstraße,126,76133,49.00997,8.39666
1135083805,Erbprinzenstraße,27,76133,49.00884,8.39736
1131735461,,,76137,48.99763,8.39334
1126224727,Am Wetterbach,40,76228,48.95781,8.46671
1108705502,Rüppurrer Straße,132,76137,48.99589,8.40533
898516215,Rosenweg,1,76199,48.97556,8.41302
1178879815,Im Speitel,56,76229,49.00752,8.5056
1070091403,Durlacher Allee,,76137,49.0045,8.4413
800765565,Kaiserstraße,141,76133,49.0096,8.40337
801780835,Essenweinstraße,7,76131,49.01014,8.42455
1039782033,Dürerstraße,3,76149,49.04614,8.3815
1039266237,Karlstraße,77,76137,48.99989,8.39401
1137449870,Zirkel,27,76131,49.01064,8.40138
800749380,Karlstraße,21,76133,49.00925,8.39504
50605752,Bismarckstraße,39,76133,49.01297,8.39321
57561520,Amalienstraße,55,76133,49.00914,8.39104
1115829589,Albert-Nestler-Straße,9,76131,49.02038,8.44106
1011026956,Am Zinken,,76149,49.05829,8.38331
1131716909,Keplerstraße,,76185,49.01699,8.36043
1206619146,Durlacher Allee,6,76131,49.00875,8.4179
800753225,Kaiserstraße,142,76133,49.01002,8.3955
1178879812,Mühlstraße,6,76229,49.00629,8.49672
1058556683,Körnerstraße,54,76135,49.0068,8.37626
1178852560,Karlstraße,87,76137,48.99914,8.39393
1039782032,Veilchenstraße,22,76131,49.00941,8.4277
898519414,Königsberger Straße,35,76139,49.03258,8.43946
1039814533,Neureuter Straße,4,76185,49.01795,8.35525
1132245303,Printzstraße,1,76139,49.02032,8.46067
1131724550,Hermann-Schneider-Allee,5,76189,49.0038,8.31983
1031198251,Werthmannstraße,9,76131,49.01642,8.42394
50610381,Amalienstraße,10,76133,49.00757,8.39568
1017890530,Kaiserstraße,137,76133,49.00952,8.40471
50612705,Werderstraße,63,76137,49.00153,8.40906
1039266249,Am Steinhäusle,2,76228,48.95776,8.46598
1112142129,Bahnhofplatz,8,76137,48.99458,8.3997
1115851474,Wattstraße,6,76185,49.03247,8.35896
1161449916,Ettlinger-Tor-Platz,1,76133,49.00564,8.40332
1139159586,Grötzinger Straße,57,76227,49.00182,8.48206
1039212930,Saumweg,3,76189,49.00279,8.32112
1070089220,Schwetzinger Straße,,76139,49.0432,8.461
1166357601,Ebertstraße,,76135,48.99486,8.38955
1164825533,Werrenstraße,11,76228,48.95404,8.51062
1137721111,An der RaumFabrik,33,76227,48.99739,8.46442
1174487442,,,76135,49.00331,8.386
1039243405,Welfenstraße,18,76137,48.99612,8.39158
1039814529,Lorenzstraße,15,76135,49.00208,8.38319
1039243410,Bernsteinstraße,22,76189,48.99519,8.35236
1194143015,Hansastraße,31,76189,49.01347,8.32294
1178851473,Moosalbstraße,16,76199,48.96565,8.39941
1039212952,Augartenstraße,24,76137,48.99914,8.40604
1108705478,Fritz-Erler-Straße,13,76133,49.00738,8.41021
1039259849,Kaiserstraße,22,76133,49.00936,8.40952
800056135,Ettlinger-Tor-Platz,1,76133,49.00564,8.40312
1108686601,Waldstraße,93,76133,49.00699,8.39236
1108686588,Mathystraße,5,76133,49.00228,8.39583
800765818,Waldstraße,65,76133,49.00867,8.39525
1100919588,Durlacher Allee,109,76137,49.00393,8.44439
1165531519,Gritznerstraße,11,76227,48.99877,8.4649
57569327,Kaiserstraße,217,76133,49.01001,8.39459
57564850,Ottostraße,18,76227,48.99698,8.43957
1165144608,B10,,76131,49.00403,8.4202
1017027840,,,76137,48.99202,8.4019
1039892567,Rosenweg,1,76199,48.97556,8.41302
1039266210,Heilbronner Straße,28,76131,49.01634,8.44116
800766372,Kronenstraße,25,76133,49.00816,8.40952
1137459219,Essenweinstraße,3,76131,49.01011,8.42408
50605091,Kaiserallee,91,76185,49.01094,8.37169
1193013391,Hertzstraße,21,76187,49.02353,8.366
1039262371,Karlsruher Straße,13,76139,49.02999,8.45789
50605236,Am Stadtgarten,5,76137,48.99629,8.40329
1058702274,Lameystraße,,76185,49.01147,8.35723
1137617935,Schenkenburgstraße,6,76135,48.9937,8.37216
1039165689,Durlacher Allee,11,76131,49.00831,8.4212
800765870,Waldstraße,57,76133,49.0089,8.39565
1178851948,Rheinstraße,41,76185,49.0112,8.36135
1166697511,,,76189,48.98429,8.36389
1178852719,Werderplatz,40,76137,49.00145,8.40747
1165846659,Hertzstraße,,76187,49.02323,8.36605
1070132235,Schwarzwaldstraße,,76137,48.99366,8.39653
1148921787,Waldstraße,24,76133,49.01042,8.39823
1070084708,Franz-Lust-Straße,,76185,49.01552,8.37517
800764690,Gartenstraße,2,76133,49.00419,8.39783
1204816875,Bernhardstraße,,76131,49.00889,8.42068
1031218924,Moldaustraße,37,76149,49.04827,8.39948
1017890521,Breite Straße,58,76135,48.99156,8.38906
1040338485,Gritznerstraße,11,76227,48.99877,8.46491
1017621171,Rubensstraße,21,76149,49.04437,8.3831
50603754,Gerwigstraße,47,76131,49.00845,8.43009
1131736026,Büchiger Allee,,76131,49.02526,8.4343
1164975459,Rastatter Straße,64,76199,48.9713,8.40384
1108686990,Kaiserstraße,82,76133,49.00966,8.40312
50604141,Jean-Ritzert-Straße,8,76227,48.99439,8.49369
1131716830,Abraham-Lincoln-Allee,1,76149,49.05601,8.40027
1192313125,Schwarzwaldstraße,92,76137,48.99192,8.40283
50605272,Amalienstraße,3,76133,49.00739,8.39607
1206272463,Knielinger Allee,,76133,49.01975,8.37292
801780839,Greschbachstraße,17,76229,49.03103,8.47463
1039243434,Saarlandstraße,96,76187,49.02992,8.34076
1112140871,Wiesenstraße,2,76228,48.95544,8.47007
1131737511,Edgar-Heller-Straße,19,76227,48.99421,8.43062
800766282,Herrenstraße,34,76133,49.00853,8.39791
1108687025,Ludwig-Wilhelm-Straße,20,76131,49.00953,8.42328
57552921,Hertzstraße,16,76187,49.02187,8.36589
50609428,,,76199,48.98969,8.40463
1108687008,Herrenstraße,29,76133,49.00829,8.3977
1192341349,Elsa-Brändström-Straße,,76228,48.97232,8.46191
1010630640,Ettlinger Straße,47,76137,48.99735,8.4043
1017621219,Erbprinzenstraße,15,76133,49.00822,8.39935
57563048,Haid-und-Neu-Straße,18,76131,49.01253,8.42645
1108686984,Waldstraße,35,76133,49.01035,8.39821
1070464359,Kaiserstraße,183,76133,49.00981,8.39893
1108686613,Rüppurrer Straße,22,76137,49.00281,8.41043
1132034810,Durmersheimer Straße,91,76185,49.0005,8.35064
1039892570,Bonhoefferstraße,12,76189,48.98852,8.36544
1178851019,Donaustraße,35,76199,48.98267,8.38983
1011027092,Auf der Breit,,76227,49.01806,8.47629
1193037883,Auer Straße,74,76227,48.99295,8.46125
1039243130,Battstraße,87,76199,48.96915,8.42344
1039823170,Marienstraße,80,76137,48.99843,8.40828
50610368,Markgrafenstraße,,76131,49.00784,8.41084
800755673,Englerstraße,10,76131,49.01086,8.41046
50611283,Stutenseer Allee,,76131,49.02028,8.41143
1058544180,Siegfriedstraße,2,76133,49.01459,8.37841
801780860,Gebhardstraße,35,76135,48.99366,8.38996
1131716903,Isoldestraße,,76185,49.01616,8.36674
1108712211,Niddastraße,32,76229,49.01002,8.49531
1137720874,Ritterstraße,19,76137,49.0039,8.39808
1070133359,Herrenalber Straße,,76199,48.96485,8.40505
1119234313,Ottostraße,22,76227,48.99683,8.43761
1161921732,Pfalzbahnstraße,,76187,49.02677,8.34159
1005230041,Steinstraße,23,76133,49.00709,8.40733
1005224459,Moltkestraße,31,76133,49.01473,8.38521
1131728642,Hauffstraße,,76199,48.96714,8.41297
1039782034,Elbinger Straße,16,76139,49.04171,8.44378
1017890532,Herrenstraße,2,76133,49.01069,8.40049
1164919041,Lorbeerweg,3,76149,49.03656,8.39305
57569328,Kaiserstraße,14,76131,49.00935,8.41097
1017890502,Durlacher Allee,69,76131,49.00655,8.43061
1193037811,Ortsstraße,21,76228,48.95293,8.51
1192312866,Waldstraße,24,76133,49.01042,8.39823
1070133358,Rastatter Straße,,76199,48.96535,8.40432
1039306523,Friedhofstraße,,76149,49.05273,8.38098
1178851546,Rechts der Alb,27,76199,48.9851,8.39772
51774597,Karlsruher Straße,29,76139,49.02902,8.4568
1115829183,Rheinstraße,34,76185,49.01123,8.3603
1193037862,Gärtnerstraße,,76227,48.99727,8.46552
1031201691,Wormser Straße,7,76185,49.02911,8.36123
57562808,Erbprinzenstraße,34,76133,49.00929,8.39605
1017433705,Siemensallee,86,76187,49.02904,8.34902
1193021848,Tulpenstraße,36,76199,48.96808,8.41163
1010067972,Michelinstraße,4,76185,49.00661,8.35139
1161474963,Niddastraße,8,76229,49.00759,8.49524
1131727369,Hinter dem Stephanienbad,,76135,48.99173,8.3937
51773560,Durmersheimer Straße,6,76185,49.00764,8.35642
50609413,Neißer Straße,,76139,49.03441,8.44392
1040338489,Kaiserstraße,104,76133,49.00984,8.39905
1115829161,Marstallstraße,4,76227,48.99887,8.47321
1192316511,Hauptbahnstraße,,76227,49.00176,8.46291
1178851567,Ettlinger Straße,27,76137,48.9988,8.40368
1131737497,Julius-Bender-Straße,,76139,49.02884,8.45942
1017890129,Am Rüppurrer Schloß,40,76199,48.98181,8.41344
50606120,Kleinsteinbacher Straße,2,76228,48.95415,8.50851
1193011778,Kaiserstraße,49,76131,49.00915,8.41236
1123007101,Ottostraße,16,76227,48.99667,8.44454
1111956122,Rheinstraße,22,76185,49.01144,8.36219
1193012213,Haid-und-Neu-Straße,38,76131,49.01396,8.43092
50610275,Kreuzstraße,13,76133,49.00835,8.40554
1132504736,Ettlinger-Tor-Platz,1,76133,49.00564,8.4032
1017890477,Eichelbergstraße,34,76189,48.99828,8.34998
1070618878,Rastatter Straße,66,76199,48.97115,8.40388
1178852597,Marienstraße,1,76137,49.00397,8.40796
898512379,Schäferstraße,11,76139,49.02781,8.46074
1031198228,Haid-und-Neu-Straße,137,76131,49.02207,8.44602
1193040005,Scheffelstraße,9,76135,49.00973,8.38182
1141454163,Lange Straße,44,76199,48.96971,8.40059
1137321231,Herweghstraße,1,76187,49.0312,8.34171
1039266230,Litzenhardtstraße,34,76135,48.98887,8.3827
1058541582,Siemensallee,25,76185,49.02136,8.36146
1126267095,Pappelallee,14,76189,48.9972,8.33642
50605127,Gottesauer Straße,32,76131,49.00546,8.42331
1126266735,Landauer Straße,6,76185,49.0307,8.36761
1108687020,Hirschstraße,22,76133,49.00866,8.3916
1132504362,Ettlinger-Tor-Platz,1,76133,49.00564,8.4032
1104303588,Karlstraße,39,76133,49.00687,8.39481
1178851614,Hinterm Dorf,33,76199,48.96516,8.39665
50605156,Bahnhofplatz,6,76137,48.99475,8.40041
1161921751,Am Anger,,76189,48.99124,8.33444
1039814981,Max-Habermann-Straße,25,76189,48.98633,8.36111
1178851528,Rastatter Straße,74,76199,48.97019,8.40404
1112142132,Neureuter Straße,8,76185,49.01874,8.35673
1024643682,Karlstraße,49,76133,49.00515,8.39473
1017154916,Amalienstraße,23,76133,49.00801,8.39428
1148490485,Gerwigstraße,5,76131,49.00943,8.42435
1010054605,Bahnhofplatz,,76137,48.99449,8.4016
1179906177,Luise-Riegger-Straße,,76137,49.00293,8.41575
1039818393,Bärenweg,38,76149,49.04464,8.38182
800067274,Weinweg,22,76131,49.00806,8.44297
57568148,Südendstraße,32,76137,48.99862,8.38932
1108398605,Amalienstraße,3,76133,49.00739,8.39607
1023843402,Pfinztalstraße,56,76227,48.99923,8.47159
801780834,Rintheimer Straße,1,76131,49.01087,8.42361
1010054597,Bahnhofplatz,,76137,48.99449,8.4016
1178852165,Blücherstraße,1,76185,49.01491,8.37513
1193012045,Kaiserpassage,10,76133,49.0107,8.39683
1201309010,Maxau am Rhein,,76187,49.03705,8.30651
1039782013,Tiengener Straße,2,76227,49.00509,8.4782
1031198255,Memeler Straße,12,76227,48.98906,8.45709
1039892866,Markgrafenstraße,42,76133,49.00729,8.40607
1017890124,Hengstplatz,9,76227,48.99982,8.47616
1178851694,Blücherstraße,1,76185,49.01491,8.37513
1148753242,Fiduciastraße,14,76227,48.99396,8.44909
1193011225,Löwenstraße,23,76199,48.9696,8.40394
1039243166,Leopoldstraße,15,76133,49.00795,8.38958
801780844,Saarlandstraße,73,76187,49.03094,8.33972
1058556701,Marktstraße,1,76185,49.01208,8.35919
1206641022,Durlacher Allee,10,76131,49.00869,8.41822
1005162389,Grünwinkler Straße,10,76135,48.98839,8.37868
1176630037,,,76133,49.01103,8.39791
1005221194,Ellmendinger Straße,6,76227,48.99135,8.4574
801780830,Unterfeldstraße,14,76149,49.0476,8.37989
1137439476,Rondellplatz,,76133,49.00701,8.40376
1039782026,Otto-Wels-Straße,33,76189,48.9855,8.36247
1193033703,Kriegsstraße,218,76135,49.00549,8.38321
996412110,Rhode-Island-Allee,70,76149,49.02677,8.38814
1108536727,Gretelweg,7,76199,48.96949,8.41428
57568718,Rintheimer Querallee,,76131,49.02388,8.42524
57569341,Eisenbahnstraße,,76229,49.00516,8.50145
1110491105,Ebertstraße,38,76137,48.99508,8.38889
1048203443,Durlacher Allee,111,76139,49.00482,8.44626
1058556671,Nowackanlage,15,76137,49.00306,8.40428
1058701759,Otto-Wels-Straße,,76189,48.98423,8.36206
1178851683,Rhode-Island-Allee,1,76149,49.02076,8.3854
800763961,Karl-Friedrich-Straße,11,76133,49.00857,8.40397
1161792129,Luisenstraße,,76137,49.00069,8.40419
1178852440,Kaiserstraße,104,76133,49.00982,8.39929
1204534117,B10,,76185,49.00517,8.36732
1039823167,Inselstraße,25,76189,49.00593,8.32628
1039814534,Schützenstraße,37,76137,49.00237,8.40731
1017890480,Daxlander Straße,72,76185,49.00738,8.34261
898523341,Gritznerstraße,8,76227,48.99883,8.46447
57553136,,,76228,48.95514,8.48298
801780846,Rheinstraße,59,76185,49.01144,8.35947
1070508626,Kaiserstraße,217,76133,49.01001,8.39462
1193012096,Linkenheimer Allee,8,76131,49.02731,8.40748
1100438750,Kaiserstraße,169,76133,49.00974,8.40031
1178852615,Bürgerstraße,16,76133,49.00796,8.39574
1108536729,Pforzheimer Straße,35,76227,49.00488,8.47078
1070067524,Thomas-Mann-Straße,,76189,48.99853,8.34079
1039877198,Kaiserstraße,122,76133,49.0099,8.39788
1149443684,Rüppurrer Straße,,76137,49.00566,8.41024
57565575,Festplatz,9,76137,49.00294,8.39972
898513834,Bonner Straße,22,76185,49.02506,8.36056
1178851393,Tulpenstraße,12,76199,48.97036,8.40678
1178850841,Turnerstraße,44,76189,49.00292,8.33605
1070075895,,,76187,49.01685,8.35277
50611746,Unterfeldstraße,46,76149,49.05082,8.38555
1165601470,Thüringer Straße,11,76228,48.95273,8.47857
1113015365,Am Mühlburger Bahnhof,10,76189,49.01547,8.35091
1039816636,Rechts der Alb,28,76199,48.98413,8.39794
1039210454,Hardtstraße,37,76185,49.01341,8.35908
1070085027,Gürrichstraße,,76149,49.0504,8.38428
1039243172,Rheinstraße,18,76185,49.0115,8.36296
50611170,Baumeisterstraße,11,76137,49.00418,8.40595
1206619079,Durlacher Allee,4,76131,49.00878,8.41775
1005222847,Kirchfeldstraße,100,76149,49.05191,8.37932
1110559608,Karlstraße,63,76137,49.002,8.39444
1039880698,Ritterstraße,6,76133,49.01035,8.40167
1132034917,Neureuter Straße,61,76185,49.0305,8.3593
1058544172,Kaiserstraße,185,76133,49.00982,8.39874
1039243142,Sophienstraße,64,76133,49.00764,8.38751
1110490897,Nürnberger Straße,5,76199,48.98476,8.40236
1193128390,Magdeburger Straße,1,76139,49.03421,8.45173
1024643544,Rhode-Island-Allee,4,76149,49.0209,8.38655
1131728646,Tulpenstraße,36,76199,48.96808,8.41164
57541650,Bahnhofplatz,1,76137,48.99443,8.40133
1203230508,Ottostraße,18,76227,48.99698,8.43957
1039879088,Grünhutstraße,1,76187,49.03719,8.35333
1108686615,Kreuzstraße,19,76133,49.0069,8.40583
1178851718,Lessingstraße,1,76135,49.00991,8.38556
1039272855,Kirchhofstraße,111,76149,49.0527,8.38211
1109989086,Südendstraße,,76137,48.99865,8.3887
1039243427,Federbachstraße,41,76189,49.00515,8.32811
1039260437,Kaiserstraße,15,76131,49.00905,8.41501
1039104950,Kaiserstraße,173,76133,49.00976,8.39999
1058541534,Belchenstraße,1,76199,48.98394,8.3961
1017890479,Östliche Rheinbrückenstraße,27,76187,49.03084,8.3415
1005221417,Oberfeldstraße,17,76149,49.04414,8.37202
51774473,Rathausplatz,,76229,49.00739,8.49573
1108712242,Alte Friedrichstraße,49,76149,49.04885,8.37777
1193011957,Kriegsstraße,94,76133,49.00568,8.40673
1058556668,Bahnhofstraße,4,76137,49.00055,8.39476
50609430,Weinweg,,76137,49.00481,8.44287
1039266219,Lange Straße,50,76199,48.96943,8.40042
1108688158,Am Wetterbach,45,76228,48.95752,8.46723
1039814524,Moltkestraße,30,76133,49.01458,8.39001
1130971055,Ottostraße,16,76227,48.99667,8.44454
800752794,Karl-Friedrich-Straße,7,76133,49.00909,8.40411
800056138,Ettlinger-Tor-Platz,1,76133,49.00564,8.40332
1039266211,Neckarstraße,47,76199,48.9843,8.39174
50606244,Pfinzstraße,64,76227,49.00128,8.47289
1206619230,Durlacher Allee,4,76131,49.00878,8.41775
1039243401,Durmersheimer Straße,81,76185,49.00095,8.35161
801780854,Leußlerstraße,4,76227,48.99293,8.46043
50603844,Marienstraße,1,76137,49.00398,8.40797
1131731033,,,76133,49.01033,8.38872
801895532,Haid-und-Neu-Straße,,76131,49.01412,8.4323
1039878916,Rheinstraße,12,76185,49.01151,8.36397
57556144,Kaiserpassage,6,76133,49.01039,8.39655
1148861305,Bahnhofplatz,1,76137,48.99446,8.40148
1070084710,Franz-Lust-Straße,,76185,49.01925,8.37549
1017634417,Rheinstraße,95,76185,49.0139,8.35501
57569339,Donauschwabenstraße,14,76149,49.05133,8.396
1048143932,Hardeckstraße,1,76185,49.00121,8.36315
1039243408,Niddastraße,9,76229,49.00718,8.49544
1178879758,Ortsstraße,17,76228,48.95314,8.50972
1161792288,Mühlstraße,,76229,49.00668,8.49665
1131737518,,,76227,48.99715,8.46955
57540958,Kaiserallee,69,76133,49.01086,8.37495
800758882,Kaiserstraße,32,76133,49.00939,8.40881
1108687002,Rudolfstraße,1,76131,49.01061,8.42195
1178879806,Elbinger Straße,2,76139,49.0415,8.43878
1039893098,Moltkestraße,90,76185,49.01524,8.37437
1193012818,Unterfeldstraße,14,76149,49.04759,8.37987
800761204,Waldstraße,24,76133,49.01042,8.39823
1039266229,Karlstraße,46,76133,49.0051,8.39448
1039878917,Karlstraße,106,76137,48.99896,8.39387
1031198226,Hofäckerstraße,6,76139,49.02895,8.45106
1202661485,Niddaplatz,,76229,49.00635,8.49633
1039263472,Rüppurrer Straße,40,76137,49.00143,8.41052
1005223619,Mannheimer Straße,3,76131,49.01245,8.4402
1175712354,Amalienbadstraße,,76227,48.99888,8.46677
57565844,Am Fächerbad,2,76131,49.02583,8.44669
1005232091,Geschwister-Scholl-Straße,2,76135,48.99454,8.38881
1039266243,Marie-Alexandra-Straße,12,76135,48.99277,8.39251
1178868720,Arndtstraße,4,76199,48.97003,8.40465
1112142142,Rheinstraße,125,76185,49.01561,8.35416
1108686607,Gottesauer Straße,35,76131,49.00667,8.42066
1048143912,Am Mühlburger Bahnhof,1,76189,49.01437,8.35209
1139160686,Neureuter Straße,14,76185,49.02471,8.35729
50605161,Hirschstraße,34,76133,49.00799,8.39152
1192311615,Waldhornstraße,22,76131,49.01,8.40963
1098053804,Herrenstraße,17,76133,49.01001,8.39976
801780857,Pfinztalstraße,64,76227,48.99925,8.47075
1164824931,Welfenstraße,6,76137,48.99599,8.3939
1144538115,Fritz-Erler-Straße,,76133,49.00897,8.40994
1206619048,Durlacher Allee,4,76131,49.00878,8.41775
1164824939,Morgenstraße,17,76137,49.00168,8.41312
1110490571,Lötzener Straße,18,76139,49.03556,8.44535
1070084707,Franz-Lust-Straße,,76185,49.01552,8.37504
1131728649,Steinmannstraße,1,76199,48.97324,8.41527
57568607,Gut Scheibenhardt,1,76135,48.9759,8.37378
1178852316,Werderstraße,11,76137,49.00141,8.40457
1100919562,Ettlinger-Tor-Platz,1,76133,49.00564,8.4032
1131716772,Am Schulberg,7,76149,49.04729,8.36909
1194474414,Bahnhofplatz,6,76137,48.99475,8.40041
1039243170,Marienstraße,34,76137,49.00222,8.40805
1148753276,Lameystraße,7,76185,49.01109,8.35745
1039243174,Waldbronner Straße,12,76228,48.94431,8.47928
1039266220,Jägerhausstraße,2,76139,49.03082,8.45828
1011027084,Gebrüder-Bachert-Straße,,76135,48.98208,8.37504
1039892648,Joachim-Kurzaj-Weg,4,76189,48.99248,8.36221
1058556686,Kriegsstraße,35,76133,49.00533,8.39716
1039257286,Schäferstraße,26,76139,49.0277,8.46
1039259863,Koellestraße,10,76189,49.01102,8.31613
1048241989,Eisenbahnstraße,,76229,49.00615,8.4933
1108694946,Siemensallee,84,76187,49.02795,8.34988
1108687021,Staigstraße,1,76229,49.00412,8.50267
1193037814,Kleinsteinbacher Straße,2,76228,48.95422,8.50901
1164824942,Daxlander Straße,2,76185,49.0058,8.3498
57556288,Karlsbader Straße,,76228,48.94496,8.49363
1023826376,Ettlinger Straße,49,76137,48.99703,8.4044
1104303632,Ottostraße,2,76227,48.9959,8.44897
1148414183,Kaiserstraße,217,76133,49.01001,8.39462
1039892566,Bismarckstraße,8,76133,49.01315,8.39492
57563179,Pulverhausstraße,42,76135,48.99069,8.37186
1204323143,Hinterm Hauptbahnhof,,76137,48.99138,8.3996
1131723600,Kriegsstraße,,76185,49.00528,8.36756
1178850682,Eichelbergstraße,19,76189,48.99682,8.3487
1039782028,Ettlinger-Tor-Platz,1,76133,49.00564,8.4032
1023817568,Durmersheimer Straße,188,76189,48.99695,8.34609
1039893531,Ernst-Frey-Straße,2,76135,48.99786,8.37914
1070075898,Rheinstraße,,76187,49.02019,8.35095
1192341350,Am Lustgarten,,76228,48.96592,8.47733
1039782016,Ellmendinger Straße,17,76227,48.99393,8.45897
1193011204,Neckarstraße,32,76199,48.9857,8.39281
1017621226,Herrenstraße,45,76133,49.00673,8.39582
50614504,Grötzinger Straße,57,76227,49.0018,8.48207
1017890524,Brettener Straße,2,76131,49.01738,8.44337
1193011571,Waldstraße,3,76133,49.01118,8.39965
1178852906,Fichtenweg,6,76149,49.04938,8.39313
1178879796,Pfinztalstraße,32,76227,48.99916,8.47324
1070132239,,,76137,48.99223,8.40165
50603831,Karl-Friedrich-Straße,12,76133,49.00787,8.40373
800756235,Fritz-Erler-Straße,1,76133,49.00909,8.41027
1193012410,Akademiestraße,26,76133,49.01127,8.39652
1058326211,Kaiserstraße,135,76133,49.00951,8.40491
57569325,Poststraße,1,76137,48.99515,8.40388
57565728,Linkenheimer Landstraße,125,76149,49.03799,8.39415
50612493,Moltkestraße,90,76185,49.01521,8.37482
1131724551,Hermann-Schneider-Allee,3,76189,49.00424,8.32101
1161857395,Anna-Lauter-Straße,7,76137,49.00189,8.41544
1039266232,Sternbergstraße,7,76131,49.01028,8.4257
1131716769,Rechts der Langen Richtstatt,6,76149,49.0418,8.36732
1141520355,Georg-Friedrich-Straße,3,76131,49.0103,8.42341
1024168210,New-York-Straße,1,76149,49.03097,8.38627
1165961624,Wikingerstraße,1,76189,49.01728,8.34632
1048242706,Karlsruher Straße,71,76139,49.02599,8.4533
1039243444,Rheinbergstraße,21,76187,49.03547,8.33478
1039782030,Hertzstraße,6,76185,49.01708,8.36245
1202373734,,,76137,48.99237,8.40234
898512937,Haid-und-Neu-Straße,41,76131,49.01415,8.43101
1005230405,Raiherwiesenstraße,13,76227,48.99868,8.45884
1161792131,Lammstraße,,76133,49.0062,8.4005
50612542,Waldstraße,3,76133,49.01119,8.39966
1132033692,Rastatter Straße,89,76199,48.97329,8.40375
1193037899,Heilbronner Straße,26,76131,49.01634,8.44088
1039892867,Marie-Alexandra-Straße,51,76135,48.99298,8.38684
1070133355,Heidelberger Straße,,76199,48.98079,8.40364
801780591,Durlacher Allee,,76139,49.00484,8.44622
1039130168,Ettlinger-Tor-Platz,1,76133,49.00564,8.4032
1096899559,Weinweg,22,76131,49.00806,8.44297
1131725552,Am Anger,,76189,48.99118,8.33443
1148940844,Rheinstraße,95,76185,49.01384,8.35502
1131716924,Frauenhäusleweg,7,76187,49.03839,8.33234
1178852142,Sophienstraße,192,76185,49.00916,8.37057
1178851430,Am Rüppurrer Schloß,1,76199,48.98097,8.40518
1108686632,Karlstraße,114,76137,48.99864,8.39383
1031198238,Augartenstraße,59,76137,48.99905,8.41001
1103752741,Herrmann-Leichtlin-Straße,11,76185,48.99724,8.35888
1039243155,Georg-Friedrich-Straße,14,76131,49.01031,8.42337
1039880849,Steinstraße,23,76133,49.00709,8.40733
50609420,Waidweg,,76189,49.00518,8.32311
1011027095,Im Kleinen Bruch,,76149,49.06586,8.37231
50604368,Südliche Hildapromenade,,76133,49.01218,8.3839
1203093706,Rintheimer Straße,15,76131,49.01105,8.42554
1178852294,Herrenstraße,23,76133,49.0093,8.39892
50605305,Neufeldstraße,10,76187,49.03143,8.3392
1017890543,Karlstraße,52,76133,49.00386,8.39439
1161080483,Krappmühlenweg,,76229,49.0059,8.51219
1058556685,Weinbrennerstraße,6,76135,49.00591,8.37714
801780845,Rheinstraße,2,76185,49.01148,8.3649
50609417,,,76131,49.01556,8.41906
1148921126,Ahaweg,6,76131,49.01874,8.40195
1126227434,Friedhofweg,,76228,48.94757,8.4807
1039130285,Kaiserstraße,147,76133,49.00967,8.4019
1132207592,Schneidemühler Straße,23,76139,49.03575,8.43579
1137762785,Egon-Eiermann-Allee,8,76187,49.03653,8.34963
1097181939,Rheinstraße,110,76185,49.01717,8.35321
1178704437,Rheinstraße,90,76185,49.01414,8.35497
801780849,Bergbahnstraße,2,76227,48.99968,8.47936
1070085029,Starenweg,,76149,49.053,8.38936
1131737503,Karl-Jäck-Weg,,76229,49.00406,8.51101
800766758,Leopoldstraße,18,76133,49.00819,8.38957
800756151,Kaiserstraße,114,76133,49.00986,8.39861
1192341348,Elsa-Brändström-Straße,,76228,48.97124,8.46785
1115828149,Hermann-Höpker-Aschoff-Straße,1,76149,49.05394,8.393
1039130165,Ettlinger-Tor-Platz,1,76133,49.00564,8.4032
50609439,Südendstraße,,76135,48.9988,8.3842
1070066402,Europaplatz,,76133,49.01002,8.39427
1039130164,Ettlinger-Tor-Platz,1,76133,49.00564,8.4032
1039257275,Fritschlachweg,17,76189,49.00181,8.32381
800056144,Rüppurrer Straße,1,76137,49.00561,8.41055
1110490871,Tulpenstraße,4,76199,48.97111,8.40506
1039243443,Neckarstraße,32,76199,48.9857,8.39281
1058701748,Seldeneckstraße,,76185,49.01473,8.36131
1202695386,Haid-und-Neu-Straße,15,76131,49.01315,8.42793
1204323132,Guckallee,,76135,48.9739,8.37263
50604901,Hans-Thoma-Straße,1,76133,49.01165,8.3995
1024126478,Eisenbahnstraße,8,76229,49.00505,8.50023
1058556665,Kaiserallee,15,76133,49.01042,8.38305
800766538,Kaiserstraße,90,76133,49.00972,8.40168
1039211649,Kaiserstraße,185,76133,49.00982,8.39874
1039240970,Yorckstraße,32,76185,49.00828,8.3728
929488844,Kußmaulstraße,15,76187,49.0199,8.36767
1178887218,Mannheimer Straße,12,76131,49.01289,8.44105
1108712200,Josef-Schmitt-Straße,2,76187,49.03379,8.37469
1039266234,Pfalzstraße,7,76189,49.00548,8.33138
1023826374,Lauterbergstraße,1,76137,48.99635,8.40483
1070085734,Haid-und-Neu-Straße,,76131,49.0137,8.42948
1137617936,Schenkenburgstraße,6,76135,48.9937,8.37216
1001492306,Bert-Brecht-Straße,64,76189,49.0001,8.3386
1070085733,Haid-und-Neu-Straße,,76131,49.01364,8.42958
1039273117,Wiesenstraße,2,76228,48.95544,8.47007
1039321009,Bahnhofplatz,1,76137,48.99449,8.4016
1166381202,Baumeisterstraße,36,76137,49.00417,8.40761
1165601161,Thüringer Straße,11,76228,48.95284,8.47785
50606144,Hansastraße,13,76189,49.00927,8.33366
1132034539,Augartenstraße,3,76137,48.99923,8.40499
57570370,Am Rüppurrer Schloß,40,76199,48.98181,8.41343
800763293,Poststraße,1,76137,48.9951,8.40365
1039782031,Kirchhofstraße,54,76149,49.05017,8.37817
1039266246,Theodor-Rehbock-Straße,11,76131,49.00919,8.4381
800766169,Adlerstraße,29,76133,49.00723,8.40789
1113022416,Sophienstraße,89,76135,49.00782,8.38286
1058556709,Löwenstraße,18,76199,48.96956,8.40394
1126226665,,,76228,48.94432,8.47763
898512336,Mauerweg,2,76185,49.00739,8.33954
1126267043,Erzbergerstraße,141,76149,49.02919,8.38645
1166607058,B10,,76131,49.00403,8.42021
1132504367,Ettlinger-Tor-Platz,1,76133,49.00564,8.4032
1108686618,Ettlinger Straße,7,76137,49.0024,8.40328
50604284,Hardtstraße,25,76185,49.01459,8.36024
801780858,Pfinztalstraße,32,76227,48.99916,8.47324
1164825536,Lötzener Straße,18,76139,49.03556,8.44536
800056130,Ettlinger-Tor-Platz,1,76133,49.00564,8.40332
1164824948,Alte Friedrichstraße,39,76149,49.04828,8.37676
1039130288,Kaiserstraße,215,76133,49.00998,8.39545
1039893097,Nebeniusstraße,22,76137,48.99734,8.40769
1108686994,Blumenstraße,19,76133,49.00828,8.39659
1005159760,Lötzener Straße,2,76139,49.03659,8.44604
1039266255,Lissenstraße,6,76227,48.99546,8.4545
1010054598,,,76137,48.99217,8.40211
1039212939,Inselstraße,14,76189,49.00648,8.32796
800757087,Kaiserstraße,207,76133,49.00995,8.39625
1039130162,Ettlinger-Tor-Platz,1,76133,49.00564,8.4032
1165846745,Kastanienallee,,76189,48.99253,8.33771
1163976881,Ottostraße,18,76227,48.99698,8.43957
800056133,Ettlinger-Tor-Platz,1,76133,49.00564,8.40332
1108686628,Amalienbadstraße,1,76227,48.99916,8.46704
1039814530,Kaiserstraße,227,76133,49.01011,8.39239
1131737496,Schloßbezirk,,76131,49.01172,8.40425
1148922680,Augustastraße,3,76137,49.00184,8.39355
1058544173,Beiertheimer Allee,15,76137,49.00248,8.3988
50615119,Schenkenburgstraße,1,76135,48.99206,8.37237
1132504372,Ettlinger-Tor-Platz,1,76133,49.00564,8.4032
800752194,Kaiserstraße,109,76133,49.00942,8.40732
1193028735,Zunftstraße,4,76227,48.9996,8.47168
1031198211,Am Anger,6,76189,48.99643,8.3388
1112142138,Rheinstraße,18,76185,49.0115,8.36296
1031198229,Roggenbachstraße,30,76133,49.01719,8.38407
898514470,Wilhelm-Hausenstein-Allee,22,76187,49.03347,8.37044
1116117430,Werderplatz,40,76137,49.00145,8.40747
801747913,Am Friedhof,6,76227,49.00213,8.48558
800763712,Ettlinger Straße,31,76137,48.9985,8.40382
801780590,Lötzener Straße,8,76139,49.03624,8.44568
1164873751,Kaiserstraße,94,76133,49.00974,8.40102
1039893133,Riedstraße,11,76199,48.96836,8.4023
801779391,Litzenhardtstraße,52,76135,48.98807,8.38113
844320896,Bocksdornweg,2,76149,49.03398,8.39424
1039243144,Ebertstraße,16,76137,48.99472,8.3939
1104117072,Amalienstraße,21,76133,49.00795,8.39446
1165961640,Reinhold-Frank-Straße,48,76133,49.01152,8.38757
1039243140,Steinkreuzstraße,40,76228,48.9743,8.45353
1202448098,Ebertstraße,38,76137,48.99508,8.38888
1108687007,Waldstraße,19,76133,49.01072,8.39884
1201408472,Hohenzollernstraße,4,76135,48.99361,8.39385
1011013896,Lange Straße,1,76199,48.9723,8.40328
50610461,Nördlicher Ritterhof,,76133,49.01032,8.40238
1131716799,Alte Friedrichstraße,,76149,49.05194,8.38282
1132504369,Ettlinger-Tor-Platz,1,76133,49.00564,8.4032
800763864,Markgrafenstraße,27,76131,49.00769,8.41092
1058556672,Kriegsstraße,27,76133,49.00533,8.39896
1132504727,Ettlinger-Tor-Platz,1,76133,49.00564,8.4032
1039782012,Rommelstraße,5,76227,48.99441,8.4652
1039266221,Ettlinger Straße,9,76137,49.0021,8.40324
50606082,Bahnhofplatz,2,76137,48.99507,8.40195
1070132237,Hardeckstraße,,76185,49.00197,8.36287
1048476366,Gartenstraße,105,76135,49.00467,8.37963
1070084712,,,76187,49.0302,8.37618
1011540996,Kaiserstraße,187,76133,49.00983,8.39853
1178852639,Kaiserstraße,82,76133,49.00965,8.40311
1148921127,Ahaweg,6,76131,49.01874,8.40195
1204820472,Raiherwiesenstraße,,76227,48.99801,8.45849
1204534767,Lorenzstraße,19,76135,49.00128,8.38308
1110490529,Rüppurrer Straße,2,76137,49.00497,8.41028
57561537,Kaiserstraße,70,76133,49.00957,8.40461
1110490836,Kaiserstraße,223,76133,49.01007,8.39328
57554191,Gottesauer Straße,6,76131,49.00833,8.41715
1058544211,Sudetenstraße,52,76187,49.03247,8.34687
1126266704,Schwindstraße,10,76135,49.00349,8.38165
1108536923,Ritterstraße,5,76133,49.00934,8.40095
1131716974,Helmut-Grobs-Allee,,76187,49.03005,8.33456
1108686604,Sophienstraße,35,76133,49.00696,8.39127
1131730097,Brüchlestraße,,76227,49.00438,8.46094
57564426,Brauerstraße,40,76135,49.00054,8.38595
1108686623,Erbprinzenstraße,31,76133,49.00931,8.39587
1005227333,Kastanienallee,32,76189,48.99248,8.33765
844448309,Donauschwabenstraße,40,76149,49.05295,8.39564
1039877200,Karlstraße,63,76137,49.002,8.39444
1039880699,Herrenstraße,30,76133,49.00888,8.39835
1108712216,Neufeldstraße,6,76187,49.03119,8.33945
1131728645,Battstraße,87,76199,48.96915,8.42344
1039814903,Pfannkuchstraße,16,76185,49.01139,8.348
1192311698,Waldstraße,,76133,49.01015,8.39778
1039815629,Breite Straße,49,76135,48.9912,8.392
50605280,Kriegsstraße,90,76133,49.00571,8.40709
1112142123,Bernhardstraße,8,76131,49.00955,8.42069
1070464387,Pfinztalstraße,17,76227,48.99916,8.47254
1017915089,Wettersteinstraße,13,76228,48.97528,8.45284
1164919040,Kaiserstraße,92,76133,49.00974,8.40116
1058541555,Gymnasiumstraße,6,76227,48.99845,8.47771
1024177316,Windeckstraße,9,76135,48.98896,8.37339
1108687000,Kaiserstraße,217,76133,49.01001,8.39462
898512228,Am Berg,2,76228,48.95666,8.47115
1104101724,Ettlinger-Tor-Platz,1,76133,49.00564,8.4032
1178851649,Sophienstraße,53,76133,49.00744,8.38977
1039243169,Im Stalbühl,1,76229,49.03066,8.50524
1138901157,Ruschgraben,90,76139,49.02098,8.45665
801780819,Am Rüppurrer Schloß,5,76199,48.98128,8.40555
1039892649,Ludwig-Erhard-Allee,3,76131,49.00561,8.41444
1010106221,Badener Straße,8,76227,48.99863,8.47659
1141613044,Donauschwabenstraße,40,76149,49.05297,8.39563
1108687017,Rheinstraße,20,76185,49.01149,8.36277
1163236651,Am Storrenacker,1,76139,49.01932,8.46213
1070085028,Amselweg,,76149,49.05317,8.38918
800751218,Kriegsstraße,140,76133,49.00558,8.39425
1100436680,Ettlinger-Tor-Platz,1,76133,49.00564,8.4032
1104303596,Kaiserstraße,122,76133,49.0099,8.39788
1070075896,Am Mühlburger Bahnhof,,76189,49.01447,8.35174
1115829240,Ludwig-Erhard-Allee,1,76131,49.00578,8.41369
1024168213,Durlacher Allee,,76139,49.00482,8.44626
57564969,Am Zinken,1,76149,49.05769,8.38458
1104303631,Ettlinger-Tor-Platz,1,76133,49.00564,8.4032
1039275844,,,76135,48.99074,8.37557
1126226962,Friedhofweg,,76228,48.94844,8.48095
1039266233,Am Anger,27,76189,48.9938,8.33638
1070067174,Kaiserallee,,76185,49.0113,8.36923
1203874668,,,76131,49.01714,8.41523
1031175682,Durmersheimer Straße,145,76189,48.99772,8.34713
50605104,Sophienstraße,24,76133,49.00705,8.39111
1174481976,,,76135,49.00114,8.38454
1039130283,Kaiserstraße,193,76133,49.00985,8.39801
1178675930,Haid-und-Neu-Straße,30,76131,49.01325,8.42833
1112420100,Gottesauer Straße,6,76131,49.00833,8.41715
1104118467,Karlstraße,51,76133,49.0042,8.3946
1017634411,Niddastraße,,76229,49.0073,8.49541
57562999,Am Mühlburger Bahnhof,1,76189,49.01447,8.35174
998045415,Schoemperlenstraße,,76185,49.02121,8.35169
1131716773,Am Junkertschritt,,76149,49.05508,8.37137
898517162,Am Entenfang,1,76185,49.01082,8.35999
1039814540,Karlstraße,36,76133,49.00659,8.39464
1104303629,Ettlinger-Tor-Platz,1,76133,49.00564,8.4032
996904392,An der Roßweid,3,76229,49.02995,8.47198
1001493866,Scheffelstraße,1,76135,49.00999,8.38185
1039130163,Ettlinger-Tor-Platz,1,76133,49.00564,8.4032
1110490894,Pfinztalstraße,61,76227,48.99928,8.46876
800763346,Schützenstraße,35,76137,49.00236,8.40696
50603372,Karlsruher Straße,82,76139,49.02545,8.44917
1058551420,Hallesche Allee,30,76139,49.03584,8.45415
1193024473,Rudolfstraße,24,76131,49.0087,8.42208
1131737498,,,76227,48.99648,8.47453
1010094854,Rheinstraße,30,76185,49.0113,8.36076
1148730267,Schwarzwaldstraße,92,76137,48.99192,8.40283
1017915033,Ortsstraße,5,76228,48.95376,8.50869
1005154276,Tilsiter Straße,15,76139,49.0313,8.43843
1193145827,Festplatz,2,76137,49.00301,8.40192
50611430,Schloßbezirk,,76131,49.01403,8.40265
801780822,Schillerstraße,53,76135,49.00618,8.3781
1206124249,Emil-Gött-Straße,12,76131,49.01228,8.42105
1108712214,Heinrich-Köhler-Straße,8,76187,49.02338,8.37352
1039816421,Talstraße,43,76228,48.9462,8.48201
1039243430,Grötzinger Straße,21,76227,49.00012,8.47965
1010054607,Bahnhofplatz,,76137,48.99449,8.4016
1201779731,Durlacher Allee,,76137,49.00528,8.43735
1058556703,Kaiserstraße,169,76133,49.00974,8.40031
1178879797,Jägerhausstraße,4,76139,49.03089,8.45804
1132504731,Ettlinger-Tor-Platz,1,76133,49.00564,8.4032
1131726157,Gewann Großoberfeld,,76135,48.98939,8.36968
1193033995,Rheinstraße,62,76185,49.01313,8.35574
1070067525,August-Dosenbach-Straße,,76189,48.99923,8.34122
1148921125,Goethestraße,45,76135,49.0094,8.37546
50605066,An der Vogelhardt,10,76149,49.04393,8.39349
1131729193,Ettlinger Allee,7,76199,48.98551,8.40417
1165144561,Ortenbergstraße,,76135,48.99114,8.37448
1023843434,Pfinzstraße,87,76227,49.00158,8.47055
1112140396,Hardtstraße,58,76185,49.01427,8.36
997869580,Wattstraße,6,76185,49.03247,8.35896
1112142140,Hegaustraße,12,76199,48.96789,8.41084
998688644,Lange Straße,1,76199,48.9723,8.40328
1148865257,Bahnhofplatz,,76137,48.99437,8.40248
1039266224,Erbprinzenstraße,23,76133,49.00877,8.3976
1110491106,Ebertstraße,38,76137,48.99508,8.38889
1017890490,Kaiserallee,61,76133,49.01075,8.37612
1040338636,Alte Friedrichstraße,54,76149,49.04894,8.37801
1109994689,Hermann-Billing-Straße,,76137,49.00389,8.40185
1070091453,Pforzheimer Straße,,76227,49.00573,8.47205
801780843,Kastenwörtstraße,24,76189,49.00495,8.33174
1110490847,Litzenhardtstraße,57,76135,48.9888,8.3826
1011026856,Weinweg,,76137,49.00799,8.44438
1005358212,,,76137,48.99217,8.40211
50604137,Ettlinger Straße,23,76137,49.00012,8.40321
1116117429,Südendstraße,44,76135,48.9988,8.38437
1039892565,Steinhäuserstraße,25,76135,48.99751,8.38151
800754421,Werderstraße,51,76137,49.0016,8.40789
1039818394,Eichelbergstraße,1,76189,48.99864,8.35033
1070067177,Kaiserallee,,76133,49.01062,8.38146
1148908266,Karl-Friedrich-Straße,9,76133,49.0088,8.40407
1132035568,Carl-Metz-Straße,3,76185,49.01202,8.3489
1203032871,Durlacher Allee,,76139,49.00556,8.4506
800753381,Leopoldstraße,3,76133,49.0099,8.38978
1039243152,Kriegsstraße,276,76135,49.00562,8.3722
1142150547,Georg-Friedrich-Straße,3,76131,49.01035,8.4234
1112143292,Grabener Straße,14,76149,49.05621,8.38338
1164824928,Tulpenstraße,3,76199,48.9707,8.40607
1203032858,Ludwig-Erhard-Allee,,76137,49.00404,8.4196
50609438,Elfmorgenbruchstraße,,76139,49.00587,8.44712
1017890514,Litzenhardtstraße,32,76135,48.98902,8.3831
1165846582,Kanzlerstraße,,76227,48.99818,8.46817
1005222095,Nancystraße,20,76187,49.02084,8.37054
50613434,Neureuter Straße,5,76185,49.0187,8.35485
1070091400,Durlacher Allee,,76227,49.00225,8.45423
1132504368,Ettlinger-Tor-Platz,1,76133,49.00564,8.4032
1070089219,,,76139,49.0434,8.46062
50611786,Heidelberger Straße,,76199,48.98061,8.40153
1017888229,Bannwaldallee,42,76185,48.99769,8.3717
1137721066,Esslinger Straße,2,76228,48.95375,8.47679
1166357607,Ebertstraße,,76135,48.99447,8.39533
57564424,Brauerstraße,40,76135,49.00053,8.38594
1178082138,Bahnhofplatz,14,76137,48.99419,8.39841
1039263440,Fritz-Erler-Straße,1,76133,49.00909,8.41027
1039880856,Durlacher Allee,24,76131,49.00835,8.42006
1178868940,Am Rüppurrer Schloß,1,76199,48.98097,8.40518
1131725553,Joachim-Kurzaj-Weg,,76189,48.9936,8.36257
57556277,Battstraße,,76199,48.96615,8.40525
1017890495,Rastatter Straße,62,76199,48.97171,8.40375
50612060,Bannwaldallee,36,76185,49.00036,8.36866
1039243447,Moldaustraße,14,76149,49.04718,8.39608
1070067170,Kaiserallee,,76133,49.01055,8.38696
1011542526,Ortenbergstraße,8,76135,48.99152,8.37497
1040338490,Leopoldstraße,5,76133,49.00942,8.38973
1017154917,Amalienstraße,23,76133,49.00801,8.39428
898512895,Hirtenweg,33,76131,49.01609,8.44713
1108706861,Eisenbahnstraße,20,76229,49.00501,8.49833
1108687003,Talstraße,9,76228,48.94556,8.4854
898512879,Haid-und-Neu-Straße,45,76131,49.01433,8.43165
800056143,Rüppurrer Straße,1,76137,49.00561,8.41055
1192830165,Rüppurrer Straße,94,76137,48.99735,8.41078
1161792134,Marstallstraße,,76227,48.99684,8.47347
1001493076,Karlstraße,67,76137,49.00134,8.39427
1031198227,Otto-Wels-Straße,4,76189,48.98825,8.36265
801780588,Nürnberger Straße,7,76199,48.98466,8.40151
1108536935,Pfinztalstraße,16,76227,48.99919,8.47424
1137973003,Weinweg,22,76131,49.00806,8.44297
1192925427,Rüppurrer Straße,94,76137,48.99735,8.41078
1178851156,Heckenweg,63,76199,48.97285,8.40649
1163982616,Weinweg,22,76131,49.00806,8.44297
1115829217,Kaiserstraße,129,76133,49.00947,8.40566
1161921746,Albert-Braun-Straße,,76189,48.98951,8.36358
1058549170,Mannheimer Straße,29,76131,49.01558,8.44334
1112513571,Prinzessenstraße,2,76227,48.99766,8.47381
50611338,Wilhelm-Baur-Straße,,76135,49.00278,8.37116
1011545405,Kaiserstraße,76,76133,49.00963,8.40371
898116477,Sophienstraße,127,76135,49.0079,8.37873
1039243171,Rheinstraße,38,76185,49.01158,8.35925
1108687010,Kaiserstraße,243,76133,49.0102,8.3903
57556272,Kaiserallee,12,76133,49.01106,8.3754
801782355,Brettener Straße,1,76131,49.0174,8.44333
1039782019,Rheinstraße,17,76185,49.01135,8.36331
801780861,Karlstraße,115,76137,48.99699,8.39374
1131729192,Am Rüppurrer Schloß,9,76199,48.98112,8.40632
1017555764,,,76131,49.01092,8.40458
1031675010,Tiengener Straße,40,76227,49.00806,8.48276
50605241,Luisenstraße,38,76137,49.00078,8.40793
996602887,Bannwaldallee,46,76185,48.997,8.37233
1136323530,An der RaumFabrik,6,76227,48.99829,8.46386
1010054601,Bahnhofplatz,,76137,48.99449,8.4016
1070623356,Kaiserstraße,102,76133,49.0098,8.39995
1132034187,Bahnhofstraße,9,76137,49.00046,8.39514
1103752740,Waldstraße,14,76133,49.0106,8.39853
50603203,Rheinstraße,90,76185,49.01414,8.35497
1039892869,Grötzinger Straße,83,76227,49.00383,8.48502
1108687033,Sophienstraße,99,76135,49.00787,8.38184
1017914839,Kaiserstraße,3,76131,49.00899,8.41601
995160322,Rheinstraße,6,76185,49.01149,8.36454
1131722973,Am Sonnenbad,,76189,49.0126,8.3487
1039257739,Jakob-Dörr-Straße,6,76187,49.03906,8.33529
57567977,Schoemperlenstraße,,76185,49.02121,8.35169
1058544184,Landauer Straße,16,76185,49.03076,8.36632
1192291858,Käppelestraße,3,76131,49.00752,8.43912
1017154881,Rheinstraße,44,76185,49.01185,8.35861
1204820605,Durlacher Allee,,76139,49.00391,8.44892
1165961610,Rudolf-Freytag-Straße,4,76189,48.99888,8.34687
1131737513,Schlossbergstraße,12,76228,48.97256,8.45459
1031201688,Elbinger Straße,14,76139,49.04142,8.44194
1178851351,Mainstraße,23,76199,48.9848,8.39343
1039243179,Zirkel,11,76131,49.01051,8.40703
1203177311,Carl-Metz-Straße,1,76185,49.01004,8.35435
1164919796,Basler-Tor-Straße,1,76227,48.99701,8.46976
1178053450,Brauerstraße,1,76133,49.00471,8.38696
1178852126,Schillerstraße,53,76135,49.00624,8.37814
50610665,Kurzheckweg,,76187,49.01573,8.34773
898522716,Grazer Straße,25,76227,48.99173,8.45532
1070085736,Haid-und-Neu-Straße,,76131,49.0207,8.44478
1131737677,Waldbronner Straße,12,76228,48.94432,8.47928
800851058,Zirkel,,76133,49.01071,8.40129
1192920203,Essenweinstraße,9,76131,49.01016,8.42486
844449707,Durmersheimer Straße,149,76189,48.99663,8.34614
1109981878,Kaiserstraße,,76131,49.00899,8.41605
1005154587,Pfinztalstraße,78,76227,48.99931,8.46893
1126225407,Amalienbadstraße,39,76227,48.99695,8.46454
1166860041,Otto-Wels-Straße,33,76189,48.98554,8.36247
801780821,Kaiserallee,113,76185,49.0111,8.36895
57561516,Baumeisterstraße,54,76137,49.00436,8.40966
1115829168,Rhode-Island-Allee,4,76149,49.0209,8.38655
50611594,Festplatz,9,76137,49.00294,8.39972
1178851632,Karlstraße,115,76137,48.99699,8.39374
1203199003,Am Storrenacker,6,76139,49.01937,8.46185
1132269870,Schwarzwaldstraße,29,76137,48.99463,8.39674
1005166852,Kirchplatz,6,76228,48.96554,8.47741
1164975333,Kaiserstraße,100,76133,49.00979,8.40002
50612640,Röntgenstraße,6,76133,49.0116,8.38329
1024168211,Moltkestraße,90,76185,49.01524,8.37437
1005162994,Graf-Rhena-Straße,18,76137,48.99742,8.38853
57565933,Rheinstraße,108,76185,49.01599,8.35398
1039212931,Kreuzstraße,3,76133,49.0101,8.40519
1070623666,Rheinstraße,35,76185,49.01126,8.36184
1192341355,Tiefentalstraße,,76228,48.96827,8.47845
1108687023,Schlesier Straße,63,76227,48.98844,8.45067
1137426138,Neuer Weg,2,76228,48.96776,8.47939
1011026954,An der Roßweid,,76229,49.03251,8.4717
1193021838,Seboldstraße,32,76227,49.0012,8.47031
1164819837,Kaiserstraße,217,76133,49.01001,8.39462
1192341352,B3,,76228,48.983,8.46038
1202649238,Erlachseeweg,,76227,48.98585,8.44693
1039823168,Mannheimer Straße,1,76131,49.01281,8.44062
1011027093,,,76187,49.02792,8.35287
1096900051,Am Mühlburger Bahnhof,10,76189,49.01547,8.35091
1108536738,Eugen-Richter-Straße,2,76187,49.02256,8.37394
1178879784,Pfinztalstraße,64,76227,48.99925,8.47074
1058556691,Kaiserallee,61,76133,49.01075,8.37612
1192927651,,,76139,49.03514,8.44507
1070063448,Ettlinger Straße,,76137,49.00473,8.40348
50603678,Bahnhofstraße,17,76137,49.00022,8.39585
1132504376,Ettlinger-Tor-Platz,1,76133,49.00564,8.4032
800762340,Lammstraße,9,76133,49.00832,8.40205
800766088,Schützenstraße,10,76137,49.00225,8.40455
1193012835,Teutschneureuter Straße,30,76149,49.05358,8.38378
1039246678,Wichernstraße,4,76185,49.00823,8.36787
1164824933,Putlitzstraße,1,76137,49.00315,8.38882
1132034812,Tullastraße,70,76131,49.0086,8.43172
1039893028,Fritz-Erler-Straße,16,76133,49.00694,8.40996
1005166382,Sophienstraße,12,76133,49.00637,8.39316
1108686612,Pfinztalstraße,30,76227,48.99915,8.47341
1115828098,Grünhutstraße,1,76187,49.03719,8.35333
1100919571,Neureuter Straße,8,76185,49.01874,8.35673
1039893526,Kriegsstraße,141,76135,49.00557,8.37638
1108686593,Litzenhardtstraße,22,76135,48.98939,8.38391
1058714029,Am Wetterbach,41,76228,48.9577,8.46688
1100918920,Rudolf-Freytag-Straße,1,76189,48.99863,8.34731
1164958476,Ettlinger Allee,3,76199,48.98938,8.40538
800765287,Karlstraße,53,76133,49.00406,8.39458
1011027090,Printzstraße,,76139,49.02266,8.46381
1192311720,Bürgerstraße,,76133,49.00881,8.39704
1024642994,Büchelbergstraße,2,76229,49.00652,8.49586
1070091398,Durlacher Allee,,76131,49.0063,8.43171
1132504364,Ettlinger-Tor-Platz,1,76133,49.00564,8.4032
801782278,Am Wetterbach,94,76228,48.95607,8.46901
1132034191,Auer Straße,10,76227,48.99928,8.46211
50611596,Festplatz,9,76137,49.00324,8.40193
800753879,Stephanienstraße,38,76133,49.01174,8.39396
1108696543,Karlstraße,17,76133,49.01048,8.39514
1174481830,Adenauerring,,76131,49.01527,8.41977
1001361208,Bahnhofplatz,,76137,48.99453,8.4016
50610669,Lindenallee,,76189,48.99796,8.33832
50609418,Fettweisstraße,,76189,49.01381,8.31051
1039257285,Douglasstraße,10,76133,49.01071,8.39351
1031172495,Ottostraße,16,76227,48.99667,8.44454
1178852936,Alte Friedrichstraße,44,76149,49.0482,8.37672
1108686894,Grünhutstraße,1,76187,49.03716,8.35337
1131735460,Erzbergerstraße,131,76149,49.02783,8.38615
1108686991,Rheinstraße,66,76185,49.01332,8.35556
1104115630,Kaiserpassage,2,76133,49.01017,8.39652
1039880515,Bahnhofplatz,1,76137,48.99443,8.40134
1017634450,Neißer Straße,12,76139,49.03516,8.44402
1039892868,Hopfenstraße,18,76185,48.9988,8.35437
50604990,Karlstraße,47,76133,49.00606,8.39474
800758058,Kaiserstraße,129,76133,49.00947,8.40566
1039893525,Südendstraße,35,76137,48.99854,8.38823
1108686625,Kriegsstraße,140,76133,49.00558,8.39425
1058556676,Sophienstraße,180,76185,49.00883,8.37241
1192312203,Ludwig-Erhard-Allee,,76137,49.00395,8.42002
1039880516,Moltkestraße,68,76133,49.01513,8.37618
50612481,Steinhäuserstraße,18,76135,48.99974,8.37944
1023843415,Neuer Weg,2,76228,48.96781,8.47927
1017890517,Franz-Kafka-Straße,6,76149,49.04921,8.3803
1138941531,Wattstraße,6,76185,49.03228,8.35886
1112147795,Unterfeldstraße,38,76149,49.04996,8.38405
1039306525,Bilfinger Straße,,76227,48.99399,8.45691
1039210490,Karlstraße,70,76137,49.00198,8.39418
1005223874,Kastenwörtstraße,23,76189,49.00461,8.33109
1178887215,Pfaffstraße,1,76227,48.99825,8.45796
1039816067,Am Anger,6,76189,48.99643,8.3388
1058555845,Pfinztalstraße,75,76227,48.99965,8.46647
800757076,Karlstraße,10,76133,49.01118,8.39515
1039251417,Kaiserstraße,120,76133,49.00988,8.39815
1193021278,Rheinstraße,56,76185,49.01249,8.35706
1112148444,Wilhelm-Leuschner-Straße,47,76189,48.98274,8.36697
800763380,Blumenstraße,19,76133,49.00828,8.39659
1070091396,Durlacher Allee,,76131,49.0077,8.42422
1178850593,Thomas-Mann-Straße,3,76189,48.99803,8.34213
1039212963,Hellbergstraße,1,76189,48.99312,8.35392
1039263457,Jollystraße,27,76137,49.00189,8.39199
1178908123,Killisfeldstraße,44,76227,48.99614,8.45291
1070075891,Rheinbrückenstraße,,76187,49.03068,8.34113
1039814531,Krämerstraße,27,76189,49.00374,8.33337
1039104944,Ettlinger-Tor-Platz,1,76133,49.00564,8.4032
1192312049,Joachim-Kurzaj-Weg,9,76189,48.9936,8.36257
1137320881,Bärenweg,37,76149,49.04482,8.38161
800764829,Wilhelmstraße,19,76137,49.00272,8.40562
1039266257,Rüppurrer Straße,60,76137,49.00015,8.4106
1039880841,Ludwig-Wilhelm-Straße,12,76131,49.00946,8.42244
50609425,,,76187,49.05631,8.32057
1161792133,Gritznerstraße,5,76227,48.99931,8.4654
1108687015,Neckarstraße,62,76199,48.98289,8.3906
1166303889,Saarlandstraße,,76187,49.03398,8.33299
1058544204,Kornblumenstraße,2,76131,49.01422,8.42282
1178851121,Ebertstraße,7,76137,48.99428,8.39718
1202373733,Hinterm Hauptbahnhof,,76137,48.99309,8.40411
1144513604,Karlstraße,101,76137,48.99794,8.39381
1202448124,Bannwaldallee,42,76185,48.99767,8.3717
800851242,,,76131,49.00556,8.4128
1104303594,Kaiserstraße,189,76133,49.00983,8.39835
1108687031,Kaiserallee,5,76133,49.01037,8.38626
1039259855,Schneidemühler Straße,14,76139,49.03548,8.43493
1110490901,Auer Straße,76,76227,48.99288,8.46118
1132504375,Ettlinger-Tor-Platz,1,76133,49.00564,8.4032
1010086613,Carl-Metz-Straße,1,76185,49.01004,8.35435
1110490892,Herweghstraße,1,76187,49.0312,8.34172
1193012303,Marienstraße,61,76137,49.00016,8.40822
1070455915,Schenkenburgstraße,2,76135,48.99196,8.37265
1130109447,Wattstraße,6,76185,49.03247,8.35896
801782276,Moltkestraße,38,76133,49.01477,8.38517
800760880,Waldstraße,87,76133,49.00721,8.39274
1070075900,Rheinstraße,,76187,49.02526,8.34646
1178887212,Beuthener Straße,18,76139,49.03482,8.4484
1110490891,Herweghstraße,1,76187,49.0312,8.34172
1017890544,Am Storrenacker,3,76139,49.01838,8.4651
1112142126,Weinweg,43,76137,49.00637,8.44356
1193011662,Sophienstraße,112,76135,49.00795,8.38108
1017890467,Kiefernweg,20,76149,49.0494,8.39565
1132034811,Waldstraße,58,76133,49.00714,8.39253
1112142131,Kastenwörtstraße,32,76189,49.0047,8.33119
57542324,Sudetenstraße,75,76187,49.03731,8.35482
1039880703,Kapellenstraße,50,76131,49.0073,8.41403
800765290,Waldstraße,63,76133,49.00877,8.39543
1178851904,Geibelstraße,27,76185,49.01188,8.36152
1166102789,Struvestraße,,76187,49.03282,8.34628
931100877,Wichernstraße,7,76185,49.00884,8.36784
1024643681,Kaiserstraße,129,76133,49.00947,8.40569
1031905123,,,76187,49.02933,8.34297
1204506570,Kaiserallee,,76133,49.01063,8.38551
50614503,Killisfeldstraße,44,76227,48.99614,8.45291
1200790632,Reichardtstraße,,76227,48.99724,8.4852
1058541577,Amalienstraße,63,76133,49.00927,8.39065
1070455913,Kaiserstraße,144,76133,49.01002,8.39533
57569334,Turnerstraße,16,76189,49.00418,8.33323
50604923,Karl-Friedrich-Straße,11,76133,49.00857,8.40397
1039880701,Printzstraße,4,76139,49.0215,8.46233
1131735792,An der Fasanengartenmauer,,76131,49.01745,8.40947
1039266259,Ludwig-Wilhelm-Straße,20,76131,49.00953,8.42328
1108686614,Waldstraße,41,76133,49.00975,8.39715
800841281,Amalienstraße,55,76133,49.00914,8.39104
1070133356,Herrenalber Straße,,76199,48.97591,8.40673
1110490883,Sophienstraße,121,76135,49.00785,8.37957
1203029823,An der Feldshütte,,76139,49.03981,8.45487
1039815631,Schäferstraße,13,76139,49.02833,8.46038
1131737675,Schilling-von-Canstatt-Straße,1,76228,48.96384,8.47061
1058556710,Schubertstraße,23,76185,49.01289,8.36932
1058544212,Kastenwörtstraße,22,76189,49.0054,8.33259
1039782036,Killisfeldstraße,46,76227,48.99678,8.45178
1131716975,Eggensteiner Straße,,76187,49.02972,8.33274
1206618983,Durlacher Allee,4,76131,49.00878,8.41775
1178887227,Mühlstraße,8,76229,49.00654,8.49667
1024643034,Ortsstraße,5,76228,48.95376,8.50869
1141850940,Kaiserstraße,169,76133,49.00973,8.40044
1058556707,Mathystraße,32,76133,49.003,8.39153
1058556696,Sophienstraße,55,76133,49.00752,8.38922
995160229,Mathystraße,13,76133,49.00239,8.395
1178852672,Luisenstraße,2,76137,49.0007,8.40485
1131752723,Daxlander Straße,70,76185,49.007,8.34539
1193011328,Diakonissenstraße,29,76199,48.97245,8.40878
1132207591,Tennesseeallee,126,76149,49.02668,8.39039
1201502688,Südliche Hildapromenade,2,76133,49.01118,8.38577
1131730096,Gewann Lenzenhub,,76227,49.00883,8.46628
1070067528,Am Anger,,76189,48.99148,8.33447
1110490898,Nürnberger Straße,5,76199,48.98476,8.40236
801782277,Holländerstraße,1,76189,49.00455,8.33236
1024168212,Georg-Friedrich-Straße,3,76131,49.01035,8.42339
1203347848,Am Fächerbad,,76131,49.02583,8.44669
801780838,Elbinger Straße,16,76139,49.04231,8.44395
1193028891,Sophienstraße,112,76135,49.00795,8.38108
1005221512,Rhode-Island-Allee,62,76149,49.02595,8.38777
801782356,Moltkestraße,125,76185,49.01749,8.36775
1039243436,Gablonzer Straße,11,76185,49.02327,8.35533
1017890503,Sophienstraße,160,76135,49.00819,8.37607
1193012433,Gottesauer Straße,19,76131,49.00752,8.4189
800764295,Karlstraße,22,76133,49.00749,8.39473
1178879795,Mannheimer Straße,12,76131,49.01289,8.44105
1024643332,Pfinztalstraße,56,76227,48.99923,8.4716
1070618900,Kaiserstraße,177,76133,49.00977,8.39974
1100953724,Waldstraße,24,76133,49.01042,8.39823
1132034814,Ettlinger Straße,43,76137,48.9974,8.40429
1126266736,Landauer Straße,6,76185,49.0307,8.36761
1104303590,Karlstraße,35,76133,49.00702,8.39483
1178869538,Rheinstraße,41,76185,49.0112,8.36135
1070075897,Pfalzbahnstraße,,76187,49.02672,8.34159
800748202,Sophienstraße,53,76133,49.00744,8.38977
50603000,Haid-und-Neu-Straße,60,76131,49.01509,8.43473
1070085532,Durlacher Allee,,76131,49.00874,8.41818
1142400723,Hans-Sachs-Straße,8,76133,49.00813,8.3861
1177960032,,,76187,49.02933,8.34297
1178869673,Eisenlohrstraße,33,76135,49.00371,8.37273
1131728643,Heidelberger Straße,,76199,48.98061,8.40153
1099935285,Durlacher Allee,109,76137,49.00393,8.44439
1070067523,Am Anger,,76189,48.98854,8.33263
1131722974,Durmersheimer Straße,34,76185,49.00553,8.35496
1031198221,Michiganstraße,1,76149,49.01966,8.38692
50603940,Breite Straße,24,76135,48.9917,8.39261
1174482016,Werderplatz,,76137,49.00146,8.40797
1126267031,Hermann-Höpker-Aschoff-Straße,2,76149,49.0542,8.39299
57553100,Kaiserpassage,,76133,49.01021,8.39648
1137720513,Rudolf-Link-Straße,,76228,48.94417,8.48849
1174481942,Karl-Wilhelm-Platz,,76131,49.01128,8.42337
1058556660,Kaiserallee,25,76133,49.01052,8.381
1174481807,Erbprinzenstraße,,76133,49.00712,8.40275
57561541,Waldbronner Straße,6,76228,48.94616,8.48027
1104075167,Durlacher Allee,111,76139,49.00503,8.4464
1070618897,Landauer Straße,8,76185,49.03071,8.36745
1115829338,Landauer Straße,10,76185,49.03073,8.36696
50605261,Durmersheimer Straße,6,76185,49.00764,8.35642
1058544183,Ellmendinger Straße,22,76227,48.99252,8.4596
1176630103,Bahnhofplatz,1,76137,48.99445,8.40144
50611244,Amthausstraße,8,76227,48.99812,8.4712
1148865264,Hauptbahnstraße,,76227,49.00174,8.46287
1135005148,Käppelestraße,2,76131,49.00806,8.43939
1137321236,Gritznerstraße,11,76227,48.99883,8.46496
1017890557,Waldstraße,13,76133,49.01095,8.39925
1132504725,Ettlinger-Tor-Platz,1,76133,49.00564,8.4032
1131752853,Pulverhausstraße,38,76135,48.99069,8.37185
1118660338,Pfinztalstraße,2,76227,48.99968,8.47563
1039240178,Am Wald,1,76149,49.03191,8.38744
800056134,Ettlinger-Tor-Platz,1,76133,49.00564,8.40332
800750065,Karl-Friedrich-Straße,6,76133,49.01,8.40398
1039243163,Ettlinger Allee,7,76199,48.98551,8.40417
1011013578,Killisfeldstraße,18,76227,48.99698,8.45824
1017889969,Adenauerring,7,76131,49.01155,8.41774
1174515920,Brauerstraße,,76135,48.99882,8.38609
800752273,Douglasstraße,28,76133,49.00914,8.39336
801782353,Breisgaustraße,9,76199,48.97122,8.40612
50613049,Bahnhofplatz,6,76137,48.99475,8.40041
1058544175,Turnerstraße,11,76189,49.00369,8.33432
1166860105,Carl-Metz-Straße,7,76185,49.01156,8.35229
800756416,Kaiserstraße,167,76133,49.00973,8.40051
1039266236,Westmarkstraße,14,76227,48.99198,8.46038
1039251460,Karlstraße,3,76133,49.01167,8.39526
1058701755,Haid-und-Neu-Straße,,76131,49.01227,8.42578
1193011980,Karlstraße,69,76137,49.00106,8.39417
1070063447,Ettlinger Straße,,76137,49.00273,8.40311
800765372,Karlstraße,46,76133,49.00511,8.39449
1178852448,Waldstraße,67,76133,49.00857,8.39507
1113046067,An der Tagweide,4,76139,49.02149,8.45857
1039880700,Reichardtstraße,22,76227,48.99664,8.48514
1108686589,Wilhelmstraße,44,76137,49.00042,8.40571
1113023713,An der Tagweide,4,76139,49.02149,8.45857
1194476684,Willy-Andreas-Allee,,76131,49.01754,8.39333
1108687034,Westmarkstraße,2,76227,48.99258,8.46091
1024168209,Brauerstraße,40,76135,49.00054,8.38595
1112150399,Rüppurrer Straße,1,76137,49.00482,8.41058
1122822085,Georg-Friedrich-Straße,25,76131,49.00784,8.42399
1100919574,Kaiserstraße,147,76133,49.00967,8.4019
800749045,Karlstraße,10,76133,49.01118,8.39515
50614512,Gut Scheibenhardt,1,76135,48.97626,8.37511
1104084905,Lammstraße,7,76133,49.00874,8.40228
1193037924,Augustenburgstraße,10,76229,49.00427,8.49774
51774689,Saarlandstraße,,76187,49.03029,8.34035
1193011922,Kriegsstraße,51,76133,49.00531,8.39384
1039243160,Zum Sportzentrum,3,76228,48.95245,8.51771
898512496,Amthausstraße,11,76227,48.99848,8.47146
1164825535,Westmarkstraße,13,76227,48.99246,8.46086
1149443590,Rüppurrer Straße,,76137,49.00566,8.41024
1132269947,Am Storrenacker,1,76139,49.01891,8.46345
1039228270,Hagsfelder Allee,24,76131,49.01911,8.42795
1141453844,Killisfeldstraße,36,76227,48.9967,8.45604
1100506312,Bannwaldallee,42,76185,48.99768,8.37169
1010718008,Kaiserstraße,147,76133,49.00967,8.4019
1131747507,Ettlinger Allee,,76199,48.98945,8.40562
1040338486,Weinbrennerstraße,7,76135,49.00638,8.37518
1058541559,Wichernstraße,3,76185,49.00909,8.36783
1039816423,Reinmuthstraße,42,76187,49.03137,8.34363
800762209,Marienstraße,43,76137,49.00137,8.40813
51774480,Pfinztalstraße,33,76227,48.99921,8.47096
1165961625,Fritz-Haber-Straße,5,76185,48.99994,8.35782
1011023692,Babbergerstraße,,76189,49.0051,8.31847
1058541546,Karlsruher Straße,80,76139,49.02499,8.44994
57563049,Amalienbadstraße,16,76227,48.99828,8.46601
1070095250,Oberausstraße,,76229,49.00543,8.50503
1164824955,Donauschwabenstraße,14,76149,49.05135,8.39599
800765315,Karlstraße,3,76133,49.01167,8.39526
1164975435,Rastatter Straße,64,76199,48.9713,8.40384
1024132960,Gerwigstraße,83,76131,49.00605,8.44288
1070067522,Am Anger,,76189,48.99587,8.33816
1039104946,Ettlinger-Tor-Platz,1,76133,49.00564,8.4032
1039816637,Moldaustraße,16,76149,49.04773,8.39724
1039104948,Kaiserstraße,110,76133,49.00985,8.39889
1112142136,Marie-Alexandra-Straße,32,76135,48.99285,8.39044
50609414,Neißer Straße,,76139,49.03392,8.44362
1202451590,Gritznerstraße,,76227,48.99877,8.4649
1070508629,Lammstraße,4,76133,49.00985,8.40268
1132504726,Ettlinger-Tor-Platz,1,76133,49.00564,8.4032
801781018,Werrenstraße,15,76228,48.95422,8.51059
1178879775,Strählerweg,52,76227,48.98826,8.48054
1039815347,Kaiserallee,2,76133,49.01059,8.38695
1108686985,Tauberstraße,1,76199,48.98478,8.39467
1165351148,Herrmann-Leichtlin-Straße,11,76185,48.99724,8.35888
1039893319,Weinweg,1,76131,49.01222,8.44592
1005231357,Marie-Alexandra-Straße,58,76135,48.99301,8.387
1164855278,Kaiserstraße,217,76133,49.01001,8.39462
1039266215,Schillerstraße,35,76135,49.00849,8.37951
1100953692,Ettlinger-Tor-Platz,1,76133,49.00564,8.4032
1200790572,Stutenseer Allee,,76131,49.01997,8.41132
50604516,Bismarckstraße,24,76133,49.01254,8.38813
1126266976,Alte Friedrichstraße,65,76149,49.04967,8.37916
1178852004,Eisenlohrstraße,33,76135,49.00371,8.37273
1161808447,Grötzinger Straße,13,76227,48.99998,8.4786
1131724552,Saumweg,,76189,49.00349,8.32303
1039243153,Gottlob-Schreber-Weg,2,76199,48.97777,8.39603
1131736024,Hagsfelder Allee,,76131,49.01928,8.42875
1144054156,Wilhelm-Leuschner-Straße,65,76189,48.98237,8.36944
1058544199,Ostendorfstraße,4,76199,48.9756,8.40585
1131737500,,,76228,48.97309,8.44967
50605663,Bahnhofplatz,14,76137,48.99419,8.39841
1164824945,Gartenstraße,26,76133,49.00454,8.3937
1039306509,Weinbrennerstraße,,76135,49.00716,8.37219
801782352,Rheinstraße,41,76185,49.0112,8.36136
1108686600,Waldstraße,71,76133,49.00778,8.39373
1203093648,Bruchwaldstraße,,76229,49.02185,8.49664
1023826323,Wachhausstraße,4,76227,48.99284,8.44662
1039243420,Wachhausstraße,15,76227,48.99247,8.44178
1039879086,Käppelestraße,5,76131,49.00784,8.43925
1164825540,Bruchwaldstraße,4,76227,49.01185,8.49471
800750938,Kriegsstraße,29,76133,49.00533,8.39852
1010054602,Bahnhofplatz,,76137,48.99449,8.4016
1140564073,Ettlinger Straße,6,76137,48.99901,8.40336
1115829692,Carl-Metz-Straße,7,76185,49.01185,8.35163
1070076230,Rheinbrückenstraße,,76187,49.03338,8.33846
1192311733,Schneidemühler Straße,20,76139,49.03551,8.43717
1110490337,Mühlstraße,8,76229,49.00681,8.49663
57569338,Lötzener Straße,16,76139,49.03556,8.44549
1203176534,Nördliche Uferstraße,,76189,49.01569,8.34649
1112419685,Rheinstraße,108,76185,49.01599,8.35398
1174493269,Gartenstraße,,76133,49.00444,8.38939
1175973399,Donauschwabenstraße,,76149,49.0493,8.39663
1204506544,Carl-Metz-Straße,,76185,49.00986,8.35458
57561539,Kaiserstraße,64,76133,49.00952,8.40545
1108687004,Bürgerstraße,9,76133,49.008,8.39588
1024643590,Werderstraße,40,76137,49.00144,8.40706
50604402,Herrenstraße,45,76133,49.00673,8.39582
1148725234,Waldstraße,51,76133,49.00938,8.39648
1202686636,Am Wetterbach,40,76228,48.9578,8.4667
1178852536,Gerwigstraße,3,76131,49.00948,8.42413
1058544213,Ringstraße,25,76228,48.97934,8.45377
1005226100,Scheffelstraße,9,76135,49.00974,8.38182
57563040,Mathystraße,22,76133,49.00269,8.39381
1039823172,Peter-und-Paul-Platz,1,76185,49.01092,8.36522
1039266256,Rheinstraße,6,76185,49.01149,8.36454
1131729654,Mastweidenweg,,76227,48.99965,8.44726
1108697101,Kirchhofstraße,106,76149,49.05286,8.38245
1131716846,Hertzstraße,23,76187,49.02616,8.36565
1164824935,Kaiserallee,33,76133,49.01059,8.37949
50614182,Kaiserallee,11,76133,49.01043,8.38473
1202792089,Durlacher Allee,24,76131,49.00835,8.42006
1193012063,Hans-Thoma-Straße,3,76133,49.01178,8.39933
800761953,Kaiserstraße,150,76133,49.01006,8.39442
1201309021,Maxau am Rhein,,76187,49.03603,8.30509
1017890506,Kaiserallee,13,76133,49.0104,8.38366
1126266703,Schwindstraße,10,76135,49.00349,8.38165
1039243156,Am Künstlerhaus,53,76131,49.00784,8.41363
800761157,Beiertheimer Allee,16,76137,49.00156,8.39765
1039243151,Gellertstraße,4,76185,49.00962,8.37327
50604282,Pfinzstraße,64,76227,49.00128,8.47289
1070085018,Unterfeldstraße,,76149,49.04672,8.37824
1137720186,Kaiserallee,69,76133,49.01086,8.37495
1164825539,Martin-Luther-Straße,1,76229,49.00546,8.49759
1024643270,Reickertstraße,2,76228,48.95487,8.47107
1024643333,Pfinzstraße,87,76227,49.00156,8.47071
800763788,Karl-Friedrich-Straße,7,76133,49.00909,8.40411
1202686638,Rathausplatz,,76229,49.00738,8.49596
1161857390,Grünhutstraße,1,76187,49.03717,8.35335
1126266975,Alte Friedrichstraße,65,76149,49.04967,8.37916
1011545178,Kaiserstraße,143,76133,49.00961,8.40313
1108686626,Bärenweg,35,76149,49.04496,8.38141
50609423,Bannwaldallee,,76185,48.9986,8.37068
1178850972,Neue-Anlage-Straße,2,76135,48.99035,8.38437
1108686982,Ludwig-Marum-Straße,1,76185,49.01326,8.3746
1148921786,Hirschstraße,87,76137,49.00111,8.39083
1141351366,Rastatter Straße,34,76199,48.97447,8.40465
50605133,Kaiserstraße,76,76133,49.00963,8.40371
50605070,Sophienstraße,69,76133,49.0077,8.38568
1039243131,Lange Straße,47,76199,48.96894,8.40014
1005154843,Elsa-Brändström-Straße,,76228,48.97091,8.46813
898517361,Stettiner Straße,41,76139,49.03222,8.43191
1058544196,Mauzenbergstraße,15,76189,48.99562,8.35137
1039210491,Pfinztalstraße,58,76227,48.99924,8.47126
1193852517,Im Rodel,7,76228,48.95655,8.4701
801780817,Schneidemühler Straße,23,76139,49.03575,8.43579
1104084904,Kaiserstraße,163,76133,49.00972,8.40079
1011093793,Weißenburger Straße,,76187,49.03765,8.36533
1070085533,Kaiserstraße,,76133,49.00937,8.40912
1164903342,Kaiserstraße,217,76133,49.01001,8.39462
50609416,Am Sportpark,,76131,49.02687,8.44464
1131737514,Schäferstraße,26,76139,49.0277,8.46
1131716922,,,76187,49.02016,8.34942
1039893530,Hardtstraße,1,76185,49.01034,8.35542
1100954225,Talstraße,34,76228,48.94604,8.48367
898112750,Riefstahlstraße,2,76133,49.01143,8.38653
1005230529,Königsberger Straße,9,76139,49.03353,8.43381
51774474,Rathausplatz,,76229,49.00739,8.49573
1104115626,Erbprinzenstraße,31,76133,49.00931,8.39587
1166357600,Ebertstraße,,76135,48.99522,8.38512
1017621214,Ritterstraße,12,76133,49.00916,8.40076
1174481829,Marie-Baum-Straße,,76137,49.00317,8.41566
1192311668,Millöckerstraße,8,76227,49.00055,8.45625
1070085730,Karlsruher Straße,,76139,49.02408,8.44908
1193011622,Waldstraße,50,76133,49.00748,8.39312
1193011592,Hardtstraße,48,76185,49.01272,8.3585
1200791115,Reichardtstraße,,76227,48.99724,8.4852
1010736454,Kaiserstraße,92,76133,49.00974,8.40116
1159534505,Kaiserallee,11,76133,49.01043,8.38473
1024126488,Theodor-Rehbock-Straße,4,76131,49.0092,8.43782
800766681,Poststraße,1,76137,48.9951,8.40365
1193018664,Insterburger Straße,16,76139,49.03799,8.43783
1142398086,Georg-Friedrich-Straße,9,76131,49.00973,8.42355
1131737512,Ostmarkstraße,,76227,48.99239,8.44918
1039275812,Lötzener Straße,16,76139,49.03565,8.44518
1178852093,Boeckhstraße,38,76137,49.00019,8.388
1131737504,Pfinztalstraße,,76227,48.99996,8.47611
50613805,Am Sportpark,1,76131,49.02572,8.44525
57540923,Amalienstraße,17,76133,49.0077,8.39518
1144537772,Killisfeldstraße,34,76227,48.99672,8.45618
1039266214,Zur Seeplatte,10,76228,48.95129,8.47036
1039816065,Bienwaldstraße,16,76187,49.0288,8.36908
1040338487,Franz-Lust-Straße,30,76185,49.01819,8.37544
1031201706,Insterburger Straße,13,76139,49.03795,8.43902
1161086680,Eisenbahnstraße,,76229,49.00572,8.49443
1110490570,Lötzener Straße,18,76139,49.03556,8.44535
1110490866,Ortsstraße,28,76228,48.95316,8.50959
1108709999,Rheinstraße,43,76185,49.01118,8.36119
50612543,Schloßbezirk,,76131,49.01357,8.40514
1070075892,Honsellstraße,,76185,49.01301,8.35483
50610597,Waldhornstraße,2,76131,49.0109,8.40846
1131731032,,,76133,49.00597,8.39904
1070450729,Eisenbahnstraße,6,76229,49.00516,8.50145
1024643271,Neuer Weg,2,76228,48.96781,8.47927
1039254007,Ettlinger Allee,9,76199,48.98423,8.40431
1204537881,Sepp-Herberger-Weg,2,76227,48.99742,8.48718
1024643604,Litzenhardtstraße,32,76135,48.98902,8.3831
1031198222,Elisabeth-von-Thadden-Straße,32,76189,48.98434,8.36768
898518959,Im Eichbäumle,1,76139,49.03154,8.44408
1110490902,Auer Straße,76,76227,48.99288,8.46118
1108712237,Saarlandstraße,88,76187,49.03027,8.34037
1005155377,Kaiserallee,6,76133,49.01068,8.38383
57566092,Grabener Straße,11,76149,49.05637,8.3835
1039266223,Zeppelinstraße,37,76185,49.00522,8.35057
1039243165,Lammstraße,7,76133,49.00874,8.40228
898512287,Lange Straße,28,76199,48.9709,8.40142
1132504360,Ettlinger-Tor-Platz,1,76133,49.00564,8.4032
1165560125,Ernst-Frey-Straße,,76135,48.9981,8.37789
1108536636,Neureuter Straße,3,76185,49.0176,8.35419
801780825,Yorckstraße,29,76185,49.00879,8.37364
1193011496,Lenzstraße,2,76137,49.00189,8.38976
1039257753,Kesselbergweg,5,76187,49.02301,8.36886
1112454567,Ellmendinger Straße,2,76227,48.99149,8.45626
1164824927,Ortenbergstraße,8,76135,48.99169,8.37511
1174481979,,,76131,49.02108,8.4312
1104101722,Ettlinger-Tor-Platz,1,76133,49.00564,8.4032
1202791875,Gablonzer Straße,13,76185,49.02317,8.35529
1131716847,Knielinger Allee,,76133,49.019,8.37604
1070085735,Haid-und-Neu-Straße,,76131,49.02076,8.44471
1005222842,Flughafenstraße,2,76149,49.03213,8.38635
800106337,Gottesauer Straße,6,76131,49.00838,8.41704
50614179,Klosterweg,,76131,49.01876,8.4215
1058544206,Kösliner Straße,50,76139,49.03311,8.44622
1070067527,Dornröschenweg,,76189,48.99325,8.33548
800761425,Karlstraße,55,76133,49.00395,8.39458
1131716906,Gutenbergstraße,,76135,49.00885,8.37539
1070455924,Kaiserstraße,88,76133,49.00971,8.40194
50610356,Zähringerstraße,,76133,49.00913,8.40107
1193809863,Durlacher Allee,6,76131,49.00875,8.4179
1017890546,Turnerstraße,18,76189,49.0041,8.33338
1039270425,Augustenburgstraße,34,76229,49.00423,8.50072
1039243400,Durmersheimer Straße,85,76185,49.00078,8.35122
800851082,,,76137,49.00313,8.39947
1108687012,Marbacher Straße,14,76228,48.95391,8.47212
1039880702,Schloßbezirk,6,76131,49.0133,8.40265
801780841,Bernsteinstraße,4,76189,48.99669,8.3539
1132034818,Ostring,4,76131,49.01114,8.4389
800756419,Hermann-Billing-Straße,11,76137,49.00399,8.39884
1005228911,Südendstraße,41,76137,48.99863,8.38715
1131735791,Kanalweg,1,76131,49.02267,8.4184
801782275,Otto-Wels-Straße,35,76189,48.9851,8.36247
1108686599,Jollystraße,13,76137,49.00145,8.39282
57570372,Fiduciastraße,,76227,48.98912,8.44788
57566094,,,76187,49.02933,8.34297
1193015024,Lameystraße,9,76185,49.01127,8.35718
1108686611,Herrenstraße,66,76133,49.00652,8.39551
1165776897,Kanalweg,,76149,49.03296,8.39355
1039816066,Neureuter Hauptstraße,84,76149,49.04702,8.37095
1011027087,Albert-Nestler-Straße,,76131,49.02096,8.44105
1040338491,Beiertheimer Allee,18,76137,49.00127,8.39745
1039263471,Karlsruher Straße,62,76139,49.02764,8.45501
1039880339,Durmersheimer Straße,55,76185,49.00229,8.35454
50610652,,,76131,49.02622,8.44582
1070132234,Poststraße,,76137,48.9953,8.40394
1164903627,Pfinztalstraße,10,76227,48.99927,8.47484
1108686978,Georg-Friedrich-Straße,6,76131,49.01071,8.42328
1137720908,Am Storrenacker,2,76139,49.02052,8.45814
1070067172,Kaiserallee,,76133,49.01086,8.37587
1108686979,Markgrafenstraße,36,76133,49.00738,8.40666
1024643331,Wettersteinstraße,13,76228,48.97527,8.45284
1039892569,Lötzener Straße,2,76139,49.03659,8.44604
57552798,Kaiserallee,3,76133,49.01036,8.3867
1039243141,Sophienstraße,59,76133,49.00752,8.38921
1108686998,Kaiserstraße,38,76133,49.00944,8.40772
1039893718,Kastenwörtstraße,23,76189,49.00461,8.33109
1040338488,Alte Kreisstraße,40,76149,49.04423,8.38976
1202686637,Pfinztalstraße,33,76227,48.9992,8.47095
1005228948,Kaiserslauterner Straße,4,76187,49.03448,8.37122
1070085017,Am Alten Bahnhof,,76149,49.04463,8.37409
57553304,Gerwigstraße,83,76131,49.00607,8.44281
1178879802,Karlsruher Straße,44,76139,49.02864,8.4563
1039304951,Rintheimer Straße,,76131,49.01114,8.42735
800709866,An der Tagweide,2,76139,49.02125,8.45834
1104303655,Karlstraße,34,76133,49.0068,8.39467
1017621210,Hans-Thoma-Straße,7,76133,49.01241,8.39881
1108398615,Kaiserstraße,100,76133,49.00979,8.40005
1039266242,Herderstraße,5,76185,49.01062,8.36856
1164921074,Stephanienstraße,102,76133,49.01055,8.38794
1200928900,Reichardtstraße,,76227,48.99751,8.48571
1104118465,Kaiserstraße,231,76133,49.01015,8.39158
1164824929,Eugen-Geck-Straße,4,76189,48.98563,8.35964
1005158272,Erzbergerstraße,131,76149,49.02783,8.38615
1031201670,Kußmaulstraße,72,76187,49.02358,8.37483
1070085728,Haid-und-Neu-Straße,,76131,49.0172,8.43904
1166565588,Karl-Friedrich-Straße,12,76133,49.00786,8.40372
1039243423,Joachim-Kurzaj-Weg,5,76189,48.99405,8.36314
1039782039,Grünewaldstraße,34,76149,49.0454,8.38265
1104303608,Kaiserstraße,82,76133,49.00966,8.40312
1039815348,Wettersteinstraße,17,76228,48.97566,8.45255
1039307724,Stephanienstraße,,76133,49.01221,8.39613
1193011709,Kaiserstraße,174,76133,49.01016,8.39213
1193011190,Breite Straße,58,76135,48.99155,8.38905
1178852975,Kiefernweg,1,76149,49.04907,8.39461
1070067175,Kaiserallee,,76185,49.01114,8.36911
1039266225,Erbprinzenstraße,27,76133,49.00884,8.39736
1110491170,Otto-Wels-Straße,23,76189,48.98626,8.36248
57568150,Steinhäuserstraße,18,76135,48.99974,8.37944
1039212960,Badener Straße,1,76227,48.99937,8.47581
1023822445,Blumenstraße,3,76133,49.00744,8.39847
1070067178,Rheinstraße,,76185,49.01145,8.36437
1070089216,,,76139,49.03581,8.45617
1039880842,Gottesauer Straße,23,76131,49.00739,8.41918
1096758103,Am Storrenacker,16,76139,49.01996,8.46757
800759356,Herrenstraße,23,76133,49.0093,8.39893
50610440,Amalienstraße,33,76133,49.00845,8.39304
1039893528,Scheibenhardter Weg,23,76199,48.98109,8.39156
1039818396,Ellmendinger Straße,1,76227,48.99152,8.45634
1039263466,Rudolf-Breitscheid-Straße,6,76189,48.98795,8.36065
50604759,Karlstraße,10,76133,49.01118,8.39515
1131747508,Petergraben,,76135,48.98541,8.38094
1039893029,Südendstraße,51,76135,48.99876,8.38426
1131725554,,,76189,48.98792,8.34591
801778731,Kaiserallee,5,76133,49.01037,8.38626
1178852241,Kriegsstraße,27,76133,49.00533,8.39893
57568151,Moltkestraße,90,76185,49.01521,8.37482
1039814528,Blumenstraße,10,76133,49.00852,8.39621
1039814979,Herrenstraße,30,76133,49.00888,8.39835
1039823169,Rastatter Straße,20,76199,48.97587,8.40518
1108686606,Veilchenstraße,27,76131,49.00834,8.42734
1203176657,Adenauerring,,76131,49.02167,8.41342
1131716907,Haydnplatz,,76133,49.01367,8.3816
1203090335,Kaiserstraße,190,76133,49.01025,8.39001
1100954193,Siemensallee,84,76187,49.02795,8.34988
1164919039,Carl-Metz-Straße,7,76185,49.01163,8.35214
1017915097,Reickertstraße,2,76228,48.95487,8.47103
1165961651,Karlstraße,49,76133,49.00515,8.39472
1194147408,Rittnertstraße,202,76227,48.97076,8.50193
1174482131,Daxlander Straße,,76185,49.00709,8.3436
1104303589,Karlstraße,29,76133,49.00749,8.39488
1017890555,Ettlinger Straße,43,76137,48.9974,8.40429
1108687014,Kronenstraße,36,76133,49.00798,8.40963
57569340,Gritznerstraße,8,76227,48.99883,8.46447
1039266231,Georg-Friedrich-Straße,7,76131,49.0099,8.42351
50603047,Haid-und-Neu-Straße,30,76131,49.01325,8.42833
1111956099,Kaiserstraße,146,76133,49.01005,8.39469
1164569884,Kaiserallee,27,76133,49.01055,8.38035
1113031272,Am Storrenacker,16,76139,49.01996,8.46757
1031198212,Kopernikusstraße,4,76185,49.00368,8.34599
1131716923,Am Mühlburger Bahnhof,16,76189,49.01892,8.34878
800752737,Werderstraße,36,76137,49.00143,8.40669
1017890482,Bärenweg,33,76149,49.04509,8.38122
1204506591,Gartenstraße,,76135,49.00437,8.38363
1142400717,Raiherwiesenstraße,38,76227,48.99748,8.45864
1192310576,Waldstraße,,76133,49.0101,8.39778
1176204167,Kaiserstraße,217,76133,49.01,8.39462
1161506871,Rastatter Straße,116,76199,48.96622,8.4044
1178879747,Im Kloth,38,76228,48.94661,8.4766
898512325,Litzenhardtstraße,142,76135,48.98288,8.37411
1031203118,Staigstraße,10,76229,49.00345,8.50027
1202791923,Tullastraße,71,76131,49.00725,8.43163
1058544165,Gritznerstraße,9,76227,48.99904,8.46515
1070459471,Rheinstraße,32,76185,49.01127,8.36053
1108687018,Yorckstraße,3,76185,49.01047,8.3746
1131753366,Ortenbergstraße,8,76135,48.99169,8.37511
800750586,Kaiserstraße,16,76131,49.00937,8.41054
1011014060,Haid-und-Neu-Straße,18,76131,49.01253,8.42645
1174481893,Klosterweg,,76131,49.01997,8.42148
1108686619,Ebertstraße,7,76137,48.99428,8.39718
1131737495,Gewann Horbenloch,2,76228,48.97103,8.44364
1131735790,Kanalweg,2,76131,49.02411,8.41885
1005228557,Markgrafenstraße,18,76133,49.00773,8.40893
1193019262,Leopoldstraße,8,76133,49.00884,8.38963
1058556680,Ritterstraße,7,76133,49.0091,8.40077
1108686987,Auer Straße,68,76227,48.99381,8.46243
1131737509,An der Tagweide,20,76139,49.02698,8.46397
1174482026,Grünwinkler Straße,,76135,48.98805,8.37994
1139003309,Rechts der Langen Richtstatt,4,76149,49.04236,8.36632
1178850921,Turnerstraße,44,76189,49.00292,8.33605
1148908265,Amalienstraße,32,76133,49.009,8.39155
50605400,Sachsenstraße,17,76137,48.99659,8.39138
1058541576,Stephanienstraße,66,76133,49.01127,8.3918
1011482223,Ochsentorstraße,4,76227,48.99958,8.47304
1131747509,An der Wässerung,,76187,49.04707,8.35589
1164824943,Rüppurrer Straße,60,76137,49.00015,8.4106
1193029285,Gewann Unten am Grötzinger Weg,1,76227,49.00544,8.48413
1148121266,Kaiserstraße,120,76133,49.00988,8.39815
1193037888,Stupfericher Weg,1,76227,48.96744,8.50542
1039259850,Saarlandstraße,79,76187,49.03054,8.34017
1175384050,Gewann Langenheck,1,76227,48.98482,8.43897
1164903088,Adlerstraße,34,76133,49.00765,8.40763
1039893094,Tullastraße,57,76131,49.00972,8.43198
50610219,Kaiserallee,11,76133,49.01016,8.38544
1108686636,Karlstraße,45,76133,49.00664,8.39478
1174481851,Forststraße,,76131,49.013,8.44351
1039130167,Ettlinger-Tor-Platz,1,76133,49.00564,8.4032
1039880847,Waldstraße,3,76133,49.01119,8.39966
57553314,Sophienstraße,135,76135,49.00795,8.37776
50609419,Mühlstraße,,76229,49.00658,8.49656
1192341418,Straße des Roten Kreuzes,,76228,48.97206,8.47339
1193011433,Gartenstraße,72,76135,49.00439,8.38397
801780826,Südendstraße,29,76137,48.99843,8.39027
1039816420,Grenadierstraße,15,76133,49.01653,8.38231
1039275813,Lötzener Straße,14,76139,49.03586,8.44533
1005155878,August-Dosenbach-Straße,28,76189,48.99965,8.34065
1039243157,Am Künstlerhaus,33,76131,49.00824,8.41466
1112532962,Ritterstraße,20,76133,49.0074,8.39945
1164824926,Eggensteiner Straße,11,76187,49.03347,8.33777
1161517026,,,76187,49.03524,8.33624
1202792856,Durlacher Allee,24,76131,49.00835,8.42006
1017890558,Diakonissenstraße,2,76199,48.97235,8.40488
1192318472,Schilling-von-Canstatt-Straße,,76228,48.96589,8.47245
1149534815,,,76131,49.01158,8.4089
1142161743,,,76199,48.98094,8.4064
1202792274,Michelinstraße,4,76185,49.00661,8.35139
800062397,Sudetenstraße,75,76187,49.03731,8.35482
1193362687,Kapellenstraße,50,76131,49.0073,8.41403
898512224,Spitalhof,30,76228,48.96413,8.4721
1178852070,Stephanienstraße,90,76133,49.01079,8.38956
1131753206,Lameystraße,7,76185,49.01092,8.35768
800766609,Kaiserstraße,199,76133,49.00987,8.39757
1131725550,Joachim-Kurzaj-Weg,,76189,48.99427,8.35936
1039104947,Ettlinger-Tor-Platz,1,76133,49.00564,8.4032
801780836,Durlacher Allee,10,76131,49.00869,8.41823
1058544162,Kaiserstraße,18,76133,49.00935,8.40978
800760220,Waldstraße,67,76133,49.00857,8.39508
50605392,Bahnhofstraße,15,76137,49.00027,8.3957
1039823171,Kaiserslauterner Straße,4,76187,49.03448,8.37122
800851021,,,76131,49.01092,8.40403
1031203113,Reinhold-Schneider-Straße,75,76199,48.96469,8.4109
1178851191,Karlstraße,97,76137,48.9982,8.39383
1132232885,Rheinstraße,10,76185,49.0115,8.36414
1178852202,Stresemannstraße,12,76187,49.02563,8.37444
1108688145,Pfinzstraße,74,76227,49.00149,8.47145
1130109446,Wattstraße,6,76185,49.03247,8.35896
1039130284,Kaiserstraße,199,76133,49.00987,8.39757
1178852392,Gerwigstraße,6,76131,49.00938,8.42444
1161921580,Neubrunnenstraße,,76139,49.0278,8.4537
1010161382,Diakonissenstraße,1,76199,48.97237,8.40523
1164824930,Battstraße,2,76199,48.96615,8.40531
1039210474,Hardtstraße,22,76185,49.01076,8.35591
1011027094,Windelbachstraße,,76228,48.95689,8.50565
1110490837,Rheinstraße,5,76185,49.01133,8.36437
1161921758,Unterfeldstraße,,76149,49.04443,8.37428
1039266226,Lange Straße,66,76199,48.96817,8.39957
50611077,Ottostraße,22,76227,48.99683,8.43761
1202288692,Lorenzstraße,20,76135,49.00163,8.38309
50605089,Bürgerstraße,4,76133,49.00859,8.39664
1193011585,Steinhäuserstraße,2,76135,49.00522,8.38179
1141453848,Im Husarenlager,1,76187,49.03317,8.35535
1201133215,Heinrich-Wittmann-Straße,21,76131,49.00971,8.44279
1005220401,Waldhornstraße,55,76131,49.00741,8.4131
1070132238,Bahnhofplatz,,76137,48.99442,8.40132
801780853,Hengstplatz,13,76227,48.99971,8.4759
1202683489,Karl-Friedrich-Straße,10,76133,49.00857,8.40367
1104303627,Ettlinger-Tor-Platz,1,76133,49.00564,8.4032
1131716848,Hertzstraße,21,76187,49.02353,8.366
1110490843,Bernsteinstraße,16,76189,48.99581,8.35307
1148918229,Kaiserstraße,241,76133,49.01019,8.39063
50605975,Ettlinger Straße,23,76137,49.00012,8.40321
1058556695,Marstallstraße,18,76227,48.99751,8.47325
1017915029,Westmarkstraße,1,76227,48.993,8.4614
57569330,Breite Straße,88,76135,48.99242,8.38594
50614180,Durmersheimer Straße,6,76185,49.00764,8.35642
1177960233,Ebertstraße,32,76137,48.99503,8.38956
1108536709,Schultheiß-Kiefer-Straße,10,76229,49.00808,8.49636
1132504730,Ettlinger-Tor-Platz,1,76133,49.00564,8.4032
1100508323,Ottostraße,2,76227,48.9959,8.44897
1017889009,Rheinstraße,45,76185,49.01113,8.36086
1165492207,Hirschstraße,18,76133,49.00938,8.39168
1193011479,Kriegsstraße,224,76135,49.00556,8.38155
1058556662,Kaiserallee,40,76185,49.01138,8.36996
1017890483,Bärenweg,35,76149,49.04496,8.38141
898512498,Durlacher Allee,31,76131,49.00742,8.4259
1164922636,Waldring,41,76133,49.01775,8.38087
1017890486,Kaiserstraße,89,76133,49.00931,8.40979
1148918228,Klauprechtstraße,13,76137,49.00077,8.39257
1161506866,Eichelbergstraße,34,76189,48.99803,8.3498
50611597,Festplatz,9,76137,49.00294,8.39972
1131737678,Balinger Straße,2,76228,48.9558,8.47929
57569335,Saarlandstraße,71,76187,49.03109,8.33924
57561540,Kaiserstraße,150,76133,49.01006,8.39442
1039257740,Ehlersstraße,20,76187,49.03137,8.37228
57561703,Wattstraße,14,76185,49.03312,8.35929
1104117185,Am Entenfang,4,76185,49.01077,8.35946
1178727577,Bahnhofplatz,,76137,48.99434,8.4025
1005169247,Welschneureuter Straße,14,76149,49.04545,8.3722
1137426134,Essenweinstraße,3,76131,49.01011,8.42408
1031198245,Schinnrainstraße,9,76227,48.99928,8.45796
1108686586,Brühlstraße,5,76227,48.98519,8.45818
51774684,An der Vogelhardt,10,76149,49.04393,8.39349
1039256529,Durlacher Allee,112,76137,49.00425,8.44179
1178868529,Karlstraße,97,76137,48.9982,8.39383
1039212929,Winterstraße,1,76137,48.99839,8.4043
1165777086,Durlacher Allee,,76131,49.00787,8.42353
996412096,Joachim-Kurzaj-Weg,4,76189,48.99248,8.36221
1070075893,Honsellstraße,,76185,49.01335,8.35452
1024643334,Westmarkstraße,1,76227,48.99297,8.46136
1126226490,Am Fächerbad,9,76131,49.02492,8.44638
1178892196,Neureuter Straße,5,76185,49.0187,8.35485
1132504365,Ettlinger-Tor-Platz,1,76133,49.00564,8.4032
1039266260,Scheffelstraße,1,76135,49.00999,8.38185
800757389,Kaiserstraße,201,76133,49.00991,8.39691
800063836,Sudetenstraße,75,76187,49.03731,8.35482
1005230334,Weiherstraße,1,76227,48.99681,8.47009
1148861119,Schwarzwaldstraße,86,76137,48.99131,8.40053
57569336,Bärenweg,21,76149,49.04685,8.37893
1039782035,Karlsruher Straße,62,76139,49.02764,8.45501
57553099,Kaiserstraße,,76133,49.01004,8.39427
1039893030,Bertholdstraße,1,76131,49.00915,8.41898
1070085731,Karlsruher Straße,,76139,49.02482,8.45008
1005227062,Alte Friedrichstraße,145,76149,49.05436,8.38672
50612145,Festplatz,1,76137,49.00324,8.40193
1126226664,Neureuter Hauptstraße,300,76149,49.05511,8.38102
1164810655,Kaiserstraße,76,76133,49.00963,8.40371
50611455,Tiergartenweg,,76137,48.99904,8.40192
800753093,Karlstraße,22,76133,49.00749,8.39473
1039814538,Bismarckstraße,10,76133,49.01303,8.39341
1039893320,Prinzessenstraße,1,76227,48.9977,8.47373
1108687011,Zähringerstraße,55,76133,49.00879,8.4065
50612348,,,76199,48.989,8.41925
800056131,Ettlinger-Tor-Platz,1,76133,49.00564,8.40332
1031198232,Kreuzelbergstraße,74,76189,48.99105,8.3541
1039880310,Neißer Straße,12,76139,49.03516,8.44402
1017889707,Philipp-Reis-Straße,1,76137,49.00466,8.41138
1104303654,Karlstraße,42,76133,49.00627,8.39459
57566306,Mendelssohnplatz,,76131,49.00591,8.4109
57568336,Im Husarenlager,12,76187,49.03408,8.35712
800759072,Erbprinzenstraße,4,76133,49.00721,8.40265
1161857568,Raiherwiesenstraße,19,76227,48.99754,8.45866
1005358210,,,76137,48.99217,8.40211
1005224188,Erzbergerstraße,131,76149,49.02783,8.38615
1178887210,Pfinztalstraße,56,76227,48.99923,8.47159
1024643605,Sophienstraße,160,76135,49.00819,8.37607
1131736023,Hagsfelder Allee,,76131,49.01932,8.42875
898116476,Sophienstraße,127,76135,49.0079,8.37873
1148918230,Klauprechtstraße,41,76137,49.00099,8.38873
1204323116,Windeckstraße,15,76135,48.98823,8.37271
800761855,Erbprinzenstraße,14,76133,49.00813,8.39976
50604576,Lindenplatz,,76185,49.01375,8.35947
1039814523,Oberfeldstraße,21,76149,49.04416,8.37284
1039880309,Grünwinkler Straße,10,76135,48.98839,8.37868
1070459496,Kaiserstraße,217,76133,49.01001,8.39462
1039259844,Greschbachstraße,18,76229,49.03341,8.47392
50606034,Hans-Sachs-Straße,2,76133,49.00966,8.38636
1017890505,Kaiserallee,11,76133,49.01038,8.38415
1039247862,Adenauerring,36,76131,49.02314,8.39601
1126267032,Hermann-Höpker-Aschoff-Straße,2,76149,49.0542,8.39299
1039893717,Kastenwörtstraße,22,76189,49.0054,8.33259
1132207263,Zirkel,27,76131,49.01067,8.40127
1132504371,Ettlinger-Tor-Platz,1,76133,49.00564,8.4032
1193020174,Grenzstraße,2,76227,48.99312,8.46178
800748874,Friedrichsplatz,1,76133,49.00861,8.40064
1039266216,Käppelestraße,2,76131,49.0084,8.43954
1011027086,Junker-und-Ruh-Straße,,76185,48.99925,8.36864
1039243397,Grötzinger Straße,23,76227,49.00031,8.47995
1143809686,Kaiserstraße,217,76133,49.01001,8.39461
50604609,Kaiserstraße,131,76133,49.00948,8.40527
1178879787,Raiherwiesenstraße,21,76227,48.99788,8.45867
1137720934,Henri-Arnaud-Straße,1,76228,48.9451,8.48168
1070085021,,,76187,49.03362,8.37644
800758630,Karlstraße,10,76133,49.01118,8.39515
1058556491,Ritterstraße,26,76137,49.005,8.39806
1137459221,Neuer Weg,2,76228,48.96776,8.47939
1108686997,Pappelallee,24,76189,48.99636,8.33579
1178868828,Tulpenstraße,12,76199,48.97036,8.40678
1174481892,Karlstraße,,76133,49.01082,8.39512
1193018635,Wilhelmstraße,45,76137,49.00089,8.40572
1176754328,Wilhelm-Hausenstein-Allee,16,76187,49.02931,8.3704
1131737499,Geißenrainweg,,76227,48.99481,8.44134
1070133357,Rastatter Straße,,76199,48.97126,8.40389
50611305,,,76131,49.01198,8.40054
1166103163,Donaustraße,,76199,48.98745,8.39148
1161921722,Am dm-Platz,,76227,49.00264,8.45512
1178851836,Erzbergerstraße,131,76149,49.02784,8.38615
1201865045,Kaiserstraße,133,76133,49.00949,8.4051
1108536732,Waldstraße,8,76133,49.011,8.39923
1132504358,Ettlinger-Tor-Platz,1,76133,49.00564,8.4032
1200928880,Jean-Ritzert-Straße,,76227,48.995,8.49217
1024126494,Am Sandfeld,1,76149,49.04447,8.39154
1203874622,,,76131,49.02003,8.42115
1001488695,Josef-Schofer-Straße,16,76187,49.02994,8.37489
1039782037,Lötzener Straße,14,76139,49.03586,8.44533
51774481,Karl-Friedrich-Straße,10,76133,49.00858,8.40367
50603872,Akademiestraße,26,76133,49.01128,8.39654
1070091402,Durlacher Allee,,76137,49.00441,8.44107
1178852341,Karlstraße,87,76137,48.99914,8.39393
1111595829,Amalienbadstraße,41,76227,48.99649,8.464
1192103983,Wattstraße,14,76185,49.03312,8.35929
1193456194,Am Rüppurrer Schloß,9,76199,48.98111,8.40632
1174482170,Am Sportpark,,76131,49.02582,8.44492
1096556073,Am Mühlburger Bahnhof,10,76189,49.01547,8.35091
1011541580,Kaiserstraße,121,76133,49.00946,8.40624
1070095251,Augustenburgstraße,,76229,49.00499,8.50454
1058556679,Huttenstraße,31,76131,49.01479,8.44569
1070624281,Grünhutstraße,1,76187,49.03716,8.35337
1204816798,Bernhardstraße,,76131,49.00889,8.42068
1202797065,Waldbronner Straße,12,76228,48.94431,8.47928
1112145152,Grötzinger Straße,65,76227,49.00238,8.48299
1132530246,Schenkendorfstraße,2,76199,48.97065,8.40507
1039286590,Pfinztalstraße,62,76227,48.99925,8.47094
1112454566,Ellmendinger Straße,2,76227,48.99149,8.45626
1137321230,Kaiserstraße,223,76133,49.01007,8.39313
1039892870,Pfalzstraße,8,76189,49.00519,8.33309
1131737507,Sepp-Herberger-Weg,2,76227,48.99743,8.4872
1174482082,Herweghstraße,,76187,49.03095,8.34121
1070067519,Eckenerstraße,,76185,49.00522,8.34962
57568337,Im Husarenlager,12,76187,49.03408,8.35712
1024125956,Neureuter Straße,10,76185,49.01917,8.35603
1108695029,Augustenburgstraße,23,76229,49.00429,8.49951
800762638,Erbprinzenstraße,4,76133,49.00721,8.40265
1130971056,Ottostraße,16,76227,48.99667,8.44454
1131716845,Berliner Straße,10,76185,49.02253,8.36373
1108536937,Scheffelstraße,16,76135,49.00964,8.38176
1108398594,Herrenstraße,21,76133,49.00951,8.39917
57553313,Durmersheimer Straße,149,76189,48.99663,8.34614
1164958751,Karlstraße,67,76137,49.00134,8.39427
1039266228,Ettlinger-Tor-Platz,1,76133,49.00564,8.4032
1138938048,Wattstraße,6,76185,49.03228,8.35886
1039814539,Lorenzstraße,27,76135,49.00051,8.38299
1058556743,Thujaweg,1,76149,49.04611,8.39351
1131716905,Burgunderplatz,,76185,49.01543,8.37217
1112142128,Lerchenstraße,1,76185,49.01338,8.3562
50605328,Kaiserstraße,152,76133,49.01007,8.39423
1039893031,Moltkestraße,8,76133,49.01437,8.39554
1017621252,Kastenwörtstraße,25,76189,49.00422,8.33024
1148121265,Kaiserstraße,120,76133,49.00988,8.39815
1039893529,Mannheimer Straße,67,76131,49.01898,8.44604
1039815630,Werderstraße,52,76137,49.00146,8.40789
1178879752,Busenbacher Straße,11,76228,48.95505,8.46882
1100919582,Kaiserstraße,217,76133,49.01001,8.39462
801751060,Alte Friedrichstraße,181,76149,49.05687,8.389
1039893527,Tullastraße,57,76131,49.00972,8.43198
1024643497,Saarlandstraße,79,76187,49.03054,8.34017
1174481853,Moltkestraße,,76133,49.01443,8.39407
1200810818,Ebertstraße,,76135,48.99437,8.39616
800757323,Karlstraße,18,76133,49.00815,8.39487
1039243404,Bonner Straße,25,76185,49.02561,8.36094
1131716918,Pfalzbahnstraße,,76187,49.02746,8.34172
50603529,Wilhelm-Hausenstein-Allee,16,76187,49.02931,8.3704
1039259864,Koellestraße,16,76189,49.01155,8.3148
1148490524,Nebeniusstraße,30,76137,48.99716,8.40961
1200787138,Ettlinger-Tor-Platz,2,76137,49.00459,8.40399
1112455260,Kaiserallee,58,76185,49.01136,8.36756
1116117438,Wilhelm-Leuschner-Straße,65,76189,48.98237,8.36945
1104074253,Kreuzstraße,26,76133,49.00665,8.40587
1104303592,Kaiserstraße,108,76133,49.00984,8.39901
1178852364,Nowackanlage,15,76137,49.00314,8.40443
801778263,Knielinger Allee,11,76133,49.01695,8.38744
1039814541,Am Schloß Gottesaue,7,76131,49.00488,8.42677
1097189055,Am Storrenacker,3,76139,49.01838,8.4651
1039243138,Nelkenstraße,19,76135,49.00922,8.37631
1005223797,Bienleinstorstraße,30,76227,49.00076,8.47009
1031198214,Steinhäuserstraße,23,76135,48.99798,8.38074
50593813,Hauptbahnstraße,1,76227,49.00168,8.46269
898522360,Kaiserstraße,217,76133,49.01001,8.39462
1203090413,Festplatz,,76137,49.00371,8.40197
1039893027,Forststraße,4,76131,49.01407,8.43994
1203172729,Werftstraße,8,76189,49.017,8.3426
1005358209,Bahnhofplatz,,76137,48.99449,8.4016
1110490835,Kaiserstraße,223,76133,49.01007,8.39328
57568699,Festplatz,,76137,49.00371,8.40199
800766830,Kaiserstraße,50,76133,49.00947,8.40687
1039266235,Leibnizstraße,8,76137,48.99773,8.39291
1024187152,Zeppelinstraße,15,76185,49.00295,8.35668
1039880514,Siemensallee,84,76187,49.02795,8.34988
800756859,Karlstraße,29,76133,49.00749,8.39488
1108687026,Zähringerstraße,72,76133,49.00874,8.40859
1110559607,Karlstraße,63,76137,49.002,8.39444
1132034819,Friedenstraße,2,76133,49.00451,8.39214
1070085729,,,76131,49.01714,8.43845
1110490830,Mannheimer Straße,51,76131,49.01703,8.44445
1166860093,Grünhutstraße,1,76187,49.03719,8.35333
1132504363,Ettlinger-Tor-Platz,1,76133,49.00564,8.4032
57569337,Brettener Straße,2,76131,49.0173,8.44329
1017890484,Bärenweg,35,76149,49.04496,8.38141
1112142127,Welfenstraße,13,76137,48.99604,8.39221
50612645,Pfinztalstraße,9,76227,48.99911,8.47382
1113022435,Am Mühlburger Bahnhof,10,76189,49.01547,8.35091
50610281,Akademiestraße,,76133,49.01077,8.39481
1017890537,Zeppelinstraße,2,76185,49.00369,8.3654
50612375,Bahnhofplatz,6,76137,48.99475,8.40041
998736499,Im Husarenlager,1,76187,49.03316,8.35534
1110490872,Tulpenstraße,4,76199,48.97111,8.40506
1178851239,Moosalbstraße,16,76199,48.96565,8.39941
50593856,Bahnhofplatz,1,76137,48.99443,8.40134
1108687032,Kaiserstraße,160,76133,49.01011,8.39328
1039104945,Ettlinger-Tor-Platz,1,76133,49.00564,8.4032
1108712241,Kirchhofstraße,35,76149,49.04889,8.37594
1132232660,,,76185,49.00897,8.35306
1023843397,Blumenstraße,3,76133,49.00744,8.39847
1192311529,,,76137,48.9945,8.40032
1070075899,,,76187,49.02013,8.35074
1058556704,Südendstraße,10,76137,48.99839,8.39321
1017028954,Neureuter Querallee,,76149,49.04507,8.39078
980751286,Unterweingartenfeld,4,76135,48.99209,8.37287
1131753038,Schneidemühler Straße,21,76139,49.03579,8.43528
1070447698,Kaiserstraße,217,76133,49.01001,8.39462
800749609,Waldstraße,67,76133,49.00857,8.39508
1005160049,Tristanstraße,1,76185,49.01516,8.36655
1024126489,Kaiserstraße,217,76133,49.01001,8.39462
51774687,Kaiserstraße,164,76133,49.01012,8.39296
1108706028,Amalienstraße,23,76133,49.00801,8.39428
1137320790,Lötzener Straße,18,76139,49.03557,8.4455
1131726160,Mittelschmallen,,76135,48.99106,8.36979
57568435,Ohmstraße,5,76229,49.02595,8.47463
1166329047,Schauenburgstraße,,76135,48.99064,8.37132
1131737508,Gewann Langenheck,,76227,48.98481,8.4392
1039823166,Waldeckstraße,9,76139,49.02901,8.45284
1192310659,Kaiserstraße,28,76133,49.00938,8.40909
1039266251,Schultheiß-Kiefer-Straße,3,76229,49.00794,8.4963
1131722970,Daxlander Straße,,76185,49.00761,8.33726
801780840,Tullastraße,74,76131,49.00786,8.43155
1039210485,Amalienstraße,49,76133,49.00884,8.3919
1192336289,Rüppurrer Straße,94,76137,48.99735,8.41078
1010161345,Rheinstraße,30,76185,49.0113,8.36077
1131752905,Rüppurrer Straße,102,76137,48.99636,8.41006
1070091401,Durlacher Allee,,76227,49.00216,8.45387
57566311,Blumentorstraße,,76227,49.00098,8.4744
1039880444,Bärenweg,39,76149,49.04471,8.38179
1110490338,Mühlstraße,8,76229,49.00683,8.49663
1005154592,Forststraße,4,76131,49.01407,8.43994
1108686980,Geibelstraße,2,76185,49.01413,8.36111
1039212953,Augartenstraße,27,76137,48.99916,8.40689
1192311677,Kaiserstraße,32,76133,49.00939,8.40882
1108687027,Sophienstraße,68,76133,49.00769,8.38666
50603823,Wilhelm-Baur-Straße,3,76135,49.00496,8.36842
1039275016,Oberwaldstraße,5,76227,48.99599,8.46249
1115829189,Erzbergerstraße,123,76133,49.02693,8.38597
1005158465,Esslinger Straße,2,76228,48.95375,8.47679
1201779819,Kaiserstraße,30,76133,49.00938,8.40894
1104303665,Kaiserstraße,205,76133,49.00994,8.39646
1192103982,Wattstraße,14,76185,49.03312,8.35929
50611977,Am Sonnenbad,39,76189,49.01332,8.34689
1161506869,Durlacher Allee,,76139,49.00479,8.44619
1174481847,Bahnhofplatz,,76137,48.99468,8.40031
1108696558,Ebertstraße,4,76137,48.9944,8.39758
1005164824,Seminarstraße,5,76133,49.01398,8.39391
1058701763,Karl-Weysser-Straße,,76227,48.99894,8.47674
1005223749,Kanzlerstraße,5,76227,48.9981,8.46786
800758730,Beiertheimer Allee,18,76137,49.00124,8.39744
1112142139,Holtzstraße,5,76135,49.00235,8.38232
50612683,Hans-Thoma-Straße,2,76133,49.01175,8.39963
898515600,Krokusweg,49,76199,48.97596,8.41389
1031201261,Basler-Tor-Straße,3,76227,48.99728,8.46979
1110490844,Bernsteinstraße,16,76189,48.99581,8.35307
57561536,Pfinztalstraße,8,76227,48.99932,8.47505
1108698500,Otto-Wels-Straße,27,76189,48.98595,8.36248
801779857,Bertholdstraße,,76131,49.00915,8.41898
1115829130,Kaiserstraße,207,76133,49.00995,8.39625
800764857,Zähringerstraße,69,76133,49.00899,8.40213
1131716972,,,76187,49.02802,8.33177
1070075894,Rheinstraße,,76185,49.01727,8.35308
1132232880,Liebensteinstraße,16,76227,49.00121,8.48097
1193037904,Pfinztalstraße,71,76227,48.99945,8.46741
996600222,Bahnhofplatz,1,76137,48.99443,8.40134
1193011353,Marienstraße,107,76137,48.99633,8.40844
1017621220,Schloßplatz,23,76131,49.01165,8.40111
1058556677,Am Wetterbach,64,76228,48.95688,8.46801
1161857398,Donauschwabenstraße,20,76149,49.05202,8.39579
1110486283,Bärenweg,37,76149,49.04482,8.38162
1204816757,Herrmann-Leichtlin-Straße,9,76185,48.99742,8.35831
1174481933,Kolpingplatz,,76137,48.99771,8.39316
1112142133,Durmersheimer Straße,27,76185,49.00535,8.35605
57567328,Gottesauer Straße,6,76131,49.00838,8.41704
1131722976,Durmersheimer Straße,81,76185,49.00095,8.35161
1039212962,Gartenstraße,26,76133,49.00455,8.3937
1108686583,Amalienstraße,30,76133,49.00893,8.39176
50593927,Hinterm Hauptbahnhof,,76137,48.99169,8.4009
1058556694,Am Stadtgarten,15,76137,48.9955,8.4022
1070066403,Marktplatz,,76133,49.00925,8.40408
1039104942,Kaiserstraße,52,76133,49.00949,8.40635
50610651,Emil-Frommel-Straße,,76131,49.01494,8.42775
1161792130,Pfinzstraße,,76227,49.00154,8.47083
1039257756,Bachstraße,52,76185,49.01254,8.36369
1070132236,Beiertheimer Allee,,76137,48.99409,8.39566
1039266250,Pfinztalstraße,42,76227,48.99921,8.47236
50604918,Stephanienstraße,28,76133,49.01201,8.39523
1039880445,Werderstraße,45,76137,49.00159,8.40747
57568235,Ottostraße,1,76227,48.99565,8.45013
1017634455,Karlsburgstraße,10,76227,48.99748,8.47537
57552803,Kronenstraße,5,76133,49.01021,8.40773
1132504729,Ettlinger-Tor-Platz,1,76133,49.00564,8.4032
801780823,Scheffelstraße,1,76135,49.00999,8.38185
1192311739,Kaiserstraße,42,76133,49.00944,8.40744
1024643381,Rastatter Straße,62,76199,48.97171,8.40375
1131730094,Untere Hub,,76227,49.00887,8.46975
1178851857,Durmersheimer Straße,60,76185,49.00393,8.35558
1163236434,Ohiostraße,7,76149,49.03137,8.3942
1070067518,Eckenerstraße,,76185,49.0052,8.34984
1039814525,Hermann-Höpker-Aschoff-Straße,1,76149,49.05394,8.393
1110490848,Litzenhardtstraße,57,76135,48.9888,8.3826
51774424,Marienstraße,16,76137,49.00325,8.40798
1201037828,Weltzienstraße,23,76135,49.00498,8.37161
1017915075,Marstallstraße,18,76227,48.99751,8.47325
800757942,Kreuzstraße,29,76133,49.00632,8.40601
1108686610,Am Stadtgarten,13,76137,48.9956,8.40234
1070091395,K9659,,76227,49.00272,8.46249
1001493865,An der Vogelhardt,2,76149,49.04455,8.39479
1141454165,Schenkenburgstraße,8,76135,48.99403,8.37179
1144514063,Hardeckstraße,4,76185,48.99947,8.36249
1131716921,Lerchenstraße,7,76185,49.01384,8.35645
1178851292,Am Rüppurrer Schloß,1,76199,48.98097,8.40518
1039816064,Kreuzelbergstraße,76,76189,48.99084,8.35385
800765758,Kaiserstraße,50,76133,49.00947,8.40687
1017890690,,,76135,48.99072,8.3756
1193011906,Fritz-Erler-Straße,1,76133,49.00909,8.41026
1058540840,Karlstraße,65,76137,49.0017,8.39438
1165601160,,,76228,48.94407,8.47873
1137321229,Rappenwörtstraße,30,76189,49.00537,8.33129
1204324992,Lötzener Straße,8,76139,49.03624,8.44568
1039266213,Westmarkstraße,78,76227,48.98905,8.45764
800063870,Sudetenstraße,75,76187,49.03731,8.35482
998688617,Rebgärtenstraße,25,76228,48.95107,8.50938
1174491660,Erzbergerstraße,,76133,49.0203,8.38501
1131737510,Fiduciastraße,,76227,48.98912,8.44788
1058701741,Eugen-Richter-Straße,,76187,49.02416,8.37145
1024643574,Neißer Straße,14,76139,49.03447,8.44421
1132504728,Ettlinger-Tor-Platz,1,76133,49.00564,8.4032
800766030,Blumenstraße,25,76133,49.00856,8.39605
1010054596,,,76137,48.99217,8.40211
1011027088,Nordbeckenstraße,,76189,49.01709,8.32174
1005220856,Heckerstraße,37,76187,49.03102,8.34266
50610631,Hermann-Veit-Straße,,76135,48.99673,8.37938
1132034216,Pfinztalstraße,90,76227,48.99963,8.46679
1108687019,Marktstraße,6,76185,49.01231,8.35949
1112142124,Haid-und-Neu-Straße,36,76131,49.0138,8.43034
1131725551,August-Dosenbach-Straße,7,76189,49.0008,8.34099
800761878,Baumeisterstraße,18,76137,49.00403,8.4064
1039243136,Grötzinger Straße,15,76227,48.99979,8.47914
50614184,Königsberger Straße,9,76139,49.03353,8.43381
50612206,Europaplatz,,76133,49.01004,8.39427
1039814532,Theodor-Rehbock-Straße,11,76131,49.00919,8.4381
1161471271,Auer Straße,50,76227,48.99571,8.46266
1017890551,Saarlandstraße,79,76187,49.03054,8.34017
1166860352,Grünewaldstraße,34,76149,49.04539,8.38265
800760269,Fritz-Erler-Straße,1,76133,49.00909,8.41026
1108686633,Spitalstraße,14,76227,49.00013,8.47064
1039892865,Weinweg,1,76131,49.01222,8.44592
1137320667,Mühlstraße,8,76229,49.00642,8.4967
1174481852,Marstallstraße,,76227,48.99902,8.47328
1131729653,Mastweidenweg,,76227,49.00005,8.44497
1070623427,Rüppurrer Straße,1,76137,49.00482,8.41058
1070447702,Durlacher Allee,,76139,49.00396,8.44922
1058556705,Sternbergstraße,5,76131,49.01044,8.42567
1039814536,Wasserwerkstraße,4,76137,48.99234,8.41497
1039266239,Sonnenbergstraße,28,76228,48.94864,8.51379
1206226665,Nancystraße,,76187,49.02305,8.3704
1103752734,Kohlenstraße,1,76185,49.00602,8.36069
1108686597,Putlitzstraße,26,76137,49.00326,8.38689
1193011741,Kaiserallee,86,76185,49.01146,8.36527
1193012899,Alte Friedrichstraße,78,76149,49.05071,8.38091
1132504733,Ettlinger-Tor-Platz,1,76133,49.00564,8.4032
898514189,Kaiserstraße,217,76133,49.01001,8.39462
57564423,Vorholzstraße,,76137,49.00006,8.38457
50612140,Alte Weingartener Straße,40,76227,49.0045,8.48003
1131753139,Waldhornstraße,14,76131,49.01039,8.40914
1070085026,Unterfeldstraße,,76149,49.05048,8.38488
50613045,Karlstraße,37,76133,49.00694,8.39482
1132504374,Ettlinger-Tor-Platz,1,76133,49.00564,8.4032
1126224995,,,76228,48.95037,8.47293
1070118303,Weinweg,22,76131,49.00806,8.44297
1174481894,Neuer Zirkel,,76131,49.01162,8.40912
800758758,Rüppurrer Straße,1,76137,49.00557,8.41055
1193011107,Ebertstraße,23,76135,48.99469,8.39163
1058555830,Oberwaldstraße,5,76227,48.99599,8.46249
1161464781,Rheinstraße,116,76185,49.01872,8.35226
800761070,Kreuzstraße,10,76133,49.00907,8.40538
1178082131,Eggensteiner Straße,,76187,49.03347,8.33777
800764041,Karlstraße,46,76133,49.0051,8.39448
1112146620,Mathystraße,11,76133,49.0024,8.39497
1202719391,Unterweingartenfeld,,76135,48.9912,8.37186
1058556684,Jägerstraße,11,76227,49.00008,8.47372
1024643542,Franz-Kafka-Straße,6,76149,49.04921,8.3803
1108686634,Pfinztalstraße,80,76227,48.99937,8.46825
50612649,Stephanienstraße,19,76133,49.01221,8.39633
1131735459,Adenauerring,36,76131,49.02314,8.39601
1039266254,Eisenbahnstraße,6,76229,49.00516,8.50145
57553305,Donauschwabenstraße,40,76149,49.05295,8.39564
1201467302,An der Tagweide,23,76139,49.02477,8.46175
898512271,Kriegsstraße,36,76131,49.00489,8.41802
1017890525,Brettener Straße,2,76131,49.01738,8.44337
57563303,Blumenstraße,4,76133,49.00808,8.39708
1011013122,Kleinsteinbacher Straße,2,76228,48.95415,8.50851
1031198220,Bachstraße,30,76185,49.01227,8.36811
1110486307,Zur Ziegelhütte,1,76228,48.95578,8.47007
57540924,Amalienstraße,46,76133,49.00957,8.38989
50605757,Karl-Friedrich-Straße,12,76133,49.00787,8.40373
1193145874,Waldstraße,61,76133,49.00897,8.39592
1131716919,Hardtstraße,,76185,49.01341,8.35915
50602851,Durlacher Allee,46,76131,49.00779,8.42283
1132504732,Ettlinger-Tor-Platz,1,76133,49.00564,8.4032
1039212954,Bärenweg,33,76149,49.04509,8.38122
1161517027,,,76187,49.03511,8.33602
1193011721,Eugen-Richter-Straße,4,76187,49.02262,8.3738
1131727371,Brunnenstückweg,2,76199,48.96959,8.39053
1122851135,Rüppurrer Straße,136,76137,48.99587,8.40457
1110490893,Pfinztalstraße,61,76227,48.99928,8.46876
1039306526,Albert-Schweitzer-Straße,,76139,49.04609,8.44715
1110490873,Rappenwörtstraße,30,76189,49.00531,8.33115
1204323170,Stuttgarter Straße,,76137,49.00193,8.42239
1137321227,Tulpenstraße,4,76199,48.97105,8.4052
1166380932,Ostmarkstraße,,76227,48.98846,8.46104
1174481844,Hauptbahnstraße,,76227,49.00171,8.46289
997869581,Wattstraße,6,76185,49.03247,8.35896
1039815632,Hagenstraße,7,76185,49.01442,8.37064
57569348,Heubergstraße,4,76228,48.97695,8.45428
1017621239,Hoffstraße,10,76133,49.01268,8.38506
1031198219,Bernsteinstraße,4,76189,48.99669,8.3539
50604934,Erbprinzenstraße,14,76133,49.00813,8.39976
800056136,Ettlinger-Tor-Platz,1,76133,49.00564,8.40332
1024643700,Georg-Friedrich-Straße,3,76131,49.01035,8.42339
1193147332,An der Vogelhardt,8,76149,49.04399,8.39443
57568239,Festplatz,2,76137,49.00308,8.40193
800759296,Kaiserstraße,72,76133,49.00957,8.40444
1164871087,Grünewaldstraße,34,76149,49.04539,8.38265
1039306517,Mainstraße,,76199,48.9845,8.39319
1058556674,Zunftstraße,12,76227,49.0001,8.47155
1023773445,Poststraße,1,76137,48.9951,8.40365
1193950720,Bahnhofplatz,,76137,48.99419,8.39846
1024168223,Killisfeldstraße,44,76227,48.99615,8.45297
1104303666,Waldstraße,61,76133,49.00887,8.39561
1039210476,Karlstraße,4,76133,49.01158,8.3952
844320886,Durlacher Allee,111,76139,49.005,8.44638
1005227588,Taubenstraße,44,76189,49.00472,8.32841
1164824934,Neureuter Straße,14,76185,49.02481,8.35733
1070067526,Am Anger,,76189,48.99289,8.33549
50603616,Gutenbergstraße,5,76135,49.00862,8.37521
1126267044,Erzbergerstraße,141,76149,49.02919,8.38645
1174482430,,,76131,49.01108,8.41773
1070114164,,,76229,49.00591,8.51319
1164824938,Douglasstraße,34,76133,49.00884,8.39332
50606327,Bahnhofplatz,6,76137,48.99475,8.40041
1193011683,Rheinstraße,30,76185,49.0113,8.36076
1005168229,Schulstraße,3,76187,49.03301,8.34131
1024643699,Ludwig-Erhard-Allee,1,76131,49.00578,8.41369
1058556682,Kaiserallee,9,76133,49.01039,8.38557
50613043,Kaiserallee,91,76185,49.01094,8.37169
1131730988,,,76131,49.00342,8.42675
1070091397,Durlacher Allee,,76131,49.00732,8.42573
1108686591,Ettlinger Straße,11,76137,49.00186,8.40321
1070085732,Neubrunnenstraße,,76139,49.02717,8.45354
1110490530,Rüppurrer Straße,2,76137,49.00497,8.41028
1024125953,Rüppurrer Straße,104,76137,48.99619,8.40993
1164825537,Glatzer Straße,1,76139,49.02789,8.44482
1005230475,Speyerer Straße,26,76199,48.98504,8.3996
50603929,Neureuter Hauptstraße,210,76149,49.05175,8.37769
800765812,Karl-Friedrich-Straße,9,76133,49.0088,8.40407
800062396,Sudetenstraße,75,76187,49.03731,8.35482
1135445621,Im Husarenlager,1,76187,49.03316,8.35534
1132530213,Wiesenstraße,22,76228,48.95339,8.47088
1130096339,Wattstraße,6,76185,49.03247,8.35896
1100155622,Carl-Metz-Straße,7,76185,49.01185,8.35163
1131722977,,,76185,49.00544,8.35359
1132504735,Ettlinger-Tor-Platz,1,76133,49.00564,8.4032
57540925,Jollystraße,19,76137,49.00165,8.39247
1137321235,Rheinstraße,5,76185,49.0113,8.36507
1137720514,Auf der Römerstraße,,76228,48.94506,8.49059
1201927126,Wattstraße,14,76185,49.03312,8.35929
898517696,Sophienstraße,147,76135,49.00813,8.37532
1131737676,Heidenheimer Straße,,76228,48.95875,8.47553
1110491168,Karlsruher Straße,23,76139,49.02933,8.45714
1193046833,Auer Straße,64,76227,48.994,8.46255
1193104529,Daimlerstraße,1,76185,49.02499,8.35672
1204832949,Raiherwiesenstraße,,76227,48.99801,8.45849
1024643474,Turnerstraße,18,76189,49.0041,8.33338
1131730989,,,76137,48.99997,8.40403
1039893093,Unterfeldstraße,6,76149,49.0462,8.3774
50609422,Alte Weingartener Straße,,76227,49.00402,8.47926
1132034815,Sophienstraße,180,76185,49.00883,8.37241
1108686629,Nuitsstraße,12,76185,49.01236,8.36255
1203029828,Bruchwaldstraße,,76229,49.0238,8.49971
1174482130,,,76139,49.03522,8.44508
1135003480,Sedanstraße,7,76185,49.01188,8.36024
1024186304,Neureuter Straße,11,76185,49.01966,8.3552
1161465066,Bahnhofplatz,,76137,48.99419,8.39846
1070089217,,,76139,49.03281,8.45527
1104075203,Kaiserstraße,86,76133,49.0097,8.40208
50609436,,,76135,48.98174,8.38833
898512822,Alte Friedrichstraße,1,76149,49.0458,8.37261
57568575,Eisenbahnstraße,40,76229,49.00663,8.49192
1096556072,Am Mühlburger Bahnhof,10,76189,49.01547,8.35091
801781055,Südliche Hildapromenade,,76133,49.01218,8.3839
1164975427,Bannwaldallee,48,76185,48.99608,8.37282
50612527,Kaiserstraße,,76131,49.00932,8.41163
1108712247,Hambacher Straße,40,76187,49.03042,8.36859
1164810575,Fiduciastraße,2,76227,48.99523,8.45038
1104101723,Ettlinger-Tor-Platz,1,76133,49.00564,8.4032
1005232594,Fritz-Haber-Straße,1,76185,48.99834,8.3567
1058556692,Karlsburgstraße,1,76227,48.99873,8.47455
1132549227,An der RaumFabrik,6,76227,48.99829,8.46386
1070623338,Kaiserstraße,128,76133,49.00995,8.39681
1174481843,Amalienbadstraße,,76227,48.99591,8.46329
1132034817,Leopoldstraße,5,76133,49.00934,8.38972
1040338492,Kaiserstraße,94,76133,49.00976,8.4007
1017154880,Rheinstraße,44,76185,49.01185,8.35861
1039266248,Vorholzstraße,11,76137,48.99957,8.39436
1131731035,,,76133,49.01315,8.39002
50609424,Zum Bergle,,76228,48.94787,8.50851
1192291921,Straße des Roten Kreuzes,,76228,48.97401,8.46394
1039814980,Marienstraße,11,76137,49.00353,8.408
1108686992,Ostendorfplatz,6,76199,48.97619,8.40696
1108688181,Grötzinger Straße,7,76227,49.00016,8.47819
1070076226,Rheinbrückenstraße,,76187,49.03542,8.33618
1108687030,Pfauenstraße,16,76199,48.97082,8.40265
50605511,Killisfeldstraße,18,76227,48.99698,8.45824
1131736022,Am Sportpark,5,76131,49.02649,8.44128
1194474445,Bahnhofplatz,6,76137,48.99475,8.40041
1131737516,Hofäckerstraße,,76139,49.02627,8.44929
1126267096,Pappelallee,14,76189,48.9972,8.33642
1174482052,,,76187,49.03019,8.37599
1039212941,Kanzlerstraße,13,76227,48.9981,8.4669
1192311591,Waldstraße,,76133,49.01015,8.39778
1031198218,Göhrenstraße,2,76199,48.97032,8.4059
1011544348,Kaiserstraße,138,76133,49.01,8.39586
1001398160,Hermann-Veit-Straße,5,76135,48.9966,8.37802
898113202,Durlacher Allee,23,76131,49.00789,8.42344
1011023698,Kußmaulstraße,,76187,49.01888,8.36934
1132504724,Ettlinger-Tor-Platz,1,76133,49.00564,8.4032
1039210499,Karlstraße,95,76137,48.99864,8.39387
1017622258,Kanalweg,52,76149,49.03301,8.39147
1174482180,Schwarzwaldstraße,,76137,48.99423,8.3966
1193011991,Rintheimer Straße,2,76131,49.01082,8.42356
800760087,Waldstraße,32,76133,49.01015,8.39777
1132530214,Karlstraße,42,76133,49.00627,8.39459
1039880845,Zähringerstraße,96,76133,49.00899,8.403
1112147804,Stresemannstraße,39,76187,49.02802,8.3724
1017890471,Kaiserstraße,72,76133,49.00957,8.40444
1148811763,Durmersheimer Straße,143,76189,48.99816,8.34829
1202645551,Auf der Breit,5,76227,49.02037,8.47763
1039210475,Kaiserstraße,117,76133,49.00945,8.40652
1131722972,,,76187,49.03368,8.35398
1203096156,Bannwaldallee,42,76185,48.99768,8.37169
1174481834,Karlstraße,,76133,49.00868,8.39497
50612395,Diakonissenstraße,28,76199,48.97212,8.40942
1108687028,Kaiserallee,65,76133,49.01085,8.37524
50611580,Festplatz,9,76137,49.00324,8.40193
1103751173,Lorbeerweg,1,76149,49.03723,8.39246
1132034816,Sophienstraße,104,76135,49.00799,8.38242
1193944784,Ebertstraße,17,76135,48.9946,8.39298
1039816422,Tulpenstraße,1,76199,48.97104,8.40532
1039210469,Kaiserstraße,133,76133,49.0095,8.40511
898521667,Moltkestraße,136,76187,49.01871,8.36612
1109996569,Steinhäuserstraße,,76135,48.99972,8.38002
1108695009,Bahnhofplatz,1,76137,48.99443,8.40134
1017917097,Rüppurrer Straße,1,76137,49.00497,8.41058
1070464250,Rheinstraße,32,76185,49.01127,8.36053
800753696,Karlstraße,66,76137,49.00228,8.39423
50602849,Ebertstraße,32,76137,48.99503,8.38956
1192318478,B3,,76228,48.98262,8.46088
1131730987,Stuttgarter Straße,59,76137,49.00183,8.42304
57568309,Siemensallee,84,76187,49.02765,8.3503
1039210459,Waldstraße,32,76133,49.00763,8.39337
1193025364,Kriegsstraße,94,76133,49.00568,8.40673
1193024706,Welschneureuter Straße,36,76149,49.04406,8.37407
57565932,Rüppurrer Straße,102,76137,48.99634,8.41005
1164125662,Kriegsstraße,100,76133,49.00561,8.4049
1165846567,Pfinztalstraße,,76227,48.99919,8.47139
1039782025,Marstallstraße,18,76227,48.99804,8.47312
1110490838,Rheinstraße,5,76185,49.01133,8.36437
1112147791,Ohmstraße,3,76229,49.02607,8.47347
1017621205,Nördliche Hildapromenade,1,76133,49.01274,8.38418
1104303645,Kaiserstraße,217,76133,49.01001,8.39462
50610191,,,76131,49.01931,8.41151
1039880308,Raiherwiesenstraße,36,76227,48.99772,8.45852
1178850800,Besselstraße,8,76185,49.00304,8.34377
1031198240,Buntestraße,2,76131,49.00729,8.42295
1202448121,Karl-Friedrich-Straße,26,76133,49.00642,8.40351
1039212947,Emil-Frommel-Straße,1,76131,49.01429,8.42972
1131729650,Durlacher Allee,112,76137,49.00425,8.44179
1131716800,,,76149,49.04874,8.39471
1058556708,Gerwigstraße,1,76131,49.00957,8.42374
1202791659,Rudolf-Freytag-Straße,4,76189,48.99888,8.34687
1178852473,Kaiserstraße,68,76133,49.00955,8.40478
1193944844,Georg-Friedrich-Straße,30,76131,49.00896,8.42366
1058556693,Karlstraße,6,76133,49.01151,8.39519
801780589,Franz-Kafka-Straße,4,76149,49.04938,8.38006
1104303593,Kaiserstraße,104,76133,49.00983,8.3993
1115829856,Bahnhofplatz,1,76137,48.99443,8.40134
51773563,Neufeldstraße,10,76187,49.03143,8.3392
1039243167,Ochsentorstraße,18,76227,49.00032,8.47287
1001490680,Rastatter Straße,2,76199,48.96603,8.40422
1070459466,Kaiserstraße,183,76133,49.00981,8.39893
1164825538,Pfinztalstraße,71,76227,48.99945,8.46741
801778732,Reinmuthstraße,50,76187,49.03085,8.34438
1204816933,Alter Schlachthof,,76131,49.00522,8.43017
1100436679,Ettlinger-Tor-Platz,1,76133,49.00564,8.4032
1001492216,Lameystraße,14,76185,49.01136,8.3574
1164824941,Willy-Brandt-Allee,3,76131,49.01551,8.39804
800766181,Baumeisterstraße,21,76137,49.0044,8.40957
1192311628,Waldstraße,24,76133,49.01042,8.39823
1175384048,Gewann Langenheck,1,76227,48.98481,8.43921
1178852189,Händelstraße,13,76185,49.01261,8.36898
1132504734,Ettlinger-Tor-Platz,1,76133,49.00564,8.4032
57565781,Südendstraße,32,76137,48.99862,8.38932
1039879087,Zeppelinstraße,15,76185,49.00295,8.35668
1039823164,Gebhardstraße,44,76135,48.99426,8.39006
1039814902,Kaiserpassage,1,76133,49.01027,8.39653
57564425,Lorenzstraße,19,76135,49.00128,8.38308
1010054604,Bahnhofplatz,1,76137,48.99443,8.40134
1203090379,,,76149,49.02445,8.38246
1178851930,Peter-und-Paul-Platz,3,76185,49.01099,8.36526
1193037864,Ernst-Friedrich-Straße,11,76227,48.9986,8.46301
1115829099,Baumeisterstraße,21,76137,49.0044,8.40957
1017889050,Am Entenfang,6,76185,49.01068,8.35932
1108710016,Rheinstraße,33,76185,49.01127,8.36197
1039266241,Rastatter Straße,99,76199,48.97227,8.40365
1108686986,Ritterstraße,10,76133,49.00932,8.40088
800751253,Kaiserstraße,152,76133,49.01007,8.39423
1005163505,Steinkreuzstraße,56,76228,48.97307,8.45179
1178850902,Saarlandstraße,88,76187,49.03027,8.34037
1131728644,Am Rüppurrer Schloß,,76199,48.98125,8.40738
1005226632,Schillerstraße,52,76135,49.00641,8.37821
1164824921,Pappelallee,12,76189,48.99728,8.33648
1194135126,Ludwig-Erhard-Allee,4,76131,49.0053,8.41433
1131716828,Ehlersstraße,20,76187,49.03137,8.37228
1010260353,Stumpfstraße,1,76131,49.01354,8.42825
1204534777,Sepp-Herberger-Weg,2,76227,48.99742,8.48718
57567920,Gottesauer Straße,6,76131,49.00833,8.41715
1070067168,Am Entenfang,,76185,49.01078,8.35956
1039893096,Leopoldstraße,9,76133,49.00832,8.38962
1110491171,Otto-Wels-Straße,23,76189,48.98626,8.36248
1108686608,Pfinztalstraße,71,76227,48.99945,8.46742
1070156886,Karlstraße,11,76133,49.01107,8.39518
1112147809,Neureuter Hauptstraße,88,76149,49.04732,8.37127
1164824936,Kaiserallee,97,76185,49.01097,8.37107
1069815455,Neureuter Straße,37,76185,49.02636,8.35758
1017890123,Hengstplatz,9,76227,48.99982,8.47616
801782274,Bärenweg,25,76149,49.04659,8.37927
1131716904,Richard-Wagner-Straße,,76185,49.01248,8.37063
1070132233,Poststraße,,76137,48.99519,8.40388
1192312967,Messplatz,,76137,49.00529,8.43483
50613804,Hermann-Veit-Straße,7,76135,48.99707,8.37751
1104074258,Scheffelstraße,44,76135,49.00825,8.38156
1202823680,Waldstraße,65,76133,49.00867,8.39525
1161795126,Griesbachstraße,10,76185,49.00153,8.36663
1104118468,Kaiserstraße,110,76133,49.00985,8.39889
800748563,Akademiestraße,38,76133,49.01083,8.39423
1039266217,Käppelestraße,5,76131,49.00784,8.43925
800759723,Hebelstraße,17,76133,49.00826,8.40292
50611591,Festplatz,9,76137,49.00294,8.39972
1005223835,Kiefernweg,22,76149,49.04949,8.39597
1070063446,Ettlinger Straße,,76137,49.00267,8.40327
1070085019,Am Alten Bahnhof,,76149,49.04729,8.37855
1010066594,Pfizerstraße,1,76139,49.02317,8.45554
1164819836,Kaiserallee,11,76133,49.01043,8.38473
1108686999,Sophienstraße,225,76185,49.01075,8.36141
1192311213,Waldstraße,30,76133,49.01022,8.39789
1193021793,Memeler Straße,1,76227,48.98935,8.45729
50612606,Ahaweg,6,76131,49.01874,8.40195
898512893,Hertzstraße,151,76187,49.03323,8.36475
801780829,Südendstraße,47,76137,48.99866,8.38635
1131730095,Pfaffstraße,,76227,48.99854,8.45503
1039257769,Annweilerstraße,9,76187,49.03382,8.35327
1202823223,Ottostraße,22,76227,48.99676,8.43721
1192341346,,,76228,48.97205,8.4698
50603263,Königsberger Straße,5,76139,49.0334,8.43239
57558767,Alte Weingartener Straße,,76227,49.00229,8.4786
1017889708,Philipp-Reis-Straße,1,76137,49.00466,8.41138
1058556700,Donaustraße,35,76199,48.98265,8.38984
1202329248,Holtzstraße,5,76135,49.00235,8.38232
51774598,Karlsruher Straße,29,76139,49.02902,8.4568
1039266240,Markgrafenstraße,27,76131,49.00769,8.41092
1039263474,Kaiserstraße,68,76133,49.00956,8.40479
1048242780,Ettlinger Allee,,76199,48.98468,8.40376
1193852521,Lötzener Straße,18,76139,49.03556,8.44536
57563898,Boschstraße,2,76185,49.02829,8.35829
1164824940,Ritterstraße,7,76133,49.00909,8.40077
898514423,Kurt-Schumacher-Straße,1,76187,49.03052,8.37116
50604186,Hansastraße,13,76189,49.00927,8.33366
1174482132,Durmersheimer Straße,,76185,49.0094,8.35514
1192291931,Käppelestraße,5,76131,49.00777,8.43923
1058549172,Riedstraße,4,76199,48.96942,8.4029
1031198250,Fröbelstraße,7,76229,49.00965,8.49142
800761983,Karlstraße,46,76133,49.00511,8.39449
1161921577,B10,,76185,49.00536,8.36774
1039815345,Südendstraße,39,76137,48.99862,8.38753
1104115625,Rittnertstraße,3,76227,48.99739,8.47734
1193011166,Lessingstraße,52,76135,49.00729,8.38489
1048143742,Pfalzbahnstraße,,76187,49.02672,8.34159
1070066401,Kaiserstraße,,76133,49.00974,8.40035
1017619246,Schloßbezirk,3,76131,49.01232,8.40154
1112532960,Erzbergerstraße,117,76133,49.02581,8.38573
1193011867,Kaiserstraße,66,76133,49.00954,8.40495
1005229661,Eichelbergstraße,1,76189,48.99864,8.35033
1110486306,Zur Ziegelhütte,1,76228,48.95578,8.47007
1108686989,Eichelbergstraße,3,76189,48.99808,8.34989
1162003920,Heinrich-Wittmann-Straße,21,76131,49.00971,8.44279
1011027089,Fritz-Haber-Straße,,76185,49.00109,8.35867
1103752739,Borsigstraße,11,76187,49.0208,8.35432
800749026,Lammstraße,9,76133,49.00832,8.40204
1058540852,Ebertstraße,11,76135,48.99449,8.39449
1165767381,Battstraße,2,76199,48.96616,8.40547
1039243432,Neufeldstraße,29,76187,49.03326,8.33705
1165767382,Ludwig-Erhard-Allee,6,76137,49.00479,8.41622
1202826244,Durlacher Allee,111,76137,49.00339,8.4475
1112150391,Bruchwaldstraße,63,76229,49.02038,8.49623
1039892650,Pfarrstraße,51,76189,49.0049,8.32624
1070076229,,,76187,49.03623,8.30847
1193011544,Amalienstraße,51,76133,49.00895,8.39156
800766574,Erbprinzenstraße,26,76133,49.00889,8.39732
1017915054,Neißer Straße,12,76139,49.03516,8.44402
800764274,Bahnhofplatz,4,76137,48.99499,8.40137
1039880697,Schloßplatz,19,76131,49.01091,8.40264
1137321228,Sternbergstraße,10,76131,49.01006,8.42572
979355722,Kaiserstraße,146,76133,49.01005,8.39469
1193012136,Ettlinger-Tor-Platz,1,76133,49.00578,8.40339
801780842,Pappelallee,30,76189,48.9961,8.33564
1108687013,Barbarossaplatz,6,76137,48.99518,8.39019
1131727372,Hohenzollernstraße,,76135,48.99394,8.38633
50605197,Mathystraße,22,76133,49.00269,8.39381
57558766,Liebensteinstraße,1,76227,49.0018,8.47992
1005227354,Klosestraße,21,76137,48.99675,8.39829
1161080346,Unterfeldstraße,,76149,49.05063,8.38513
801781017,Nikolaus-Lenau-Straße,18,76199,48.96491,8.40839
898514850,Gritznerstraße,8,76227,48.99883,8.46447
1203054360,Bei dem Elfmorgenbruch,,76139,49.00853,8.44886
1058701388,Hermann-Hesse-Straße,,76189,49.00119,8.33964
57561544,Karlstraße,100,76137,48.99935,8.39391
1039212923,Kreuzstraße,25,76133,49.00656,8.40594
1039243135,Adenauerring,32,76131,49.02377,8.39828
1108686996,Kaiserallee,141,76185,49.01126,8.36625
1005231184,Beuthener Straße,30,76139,49.03482,8.45375
1178852696,Kaiserstraße,18,76133,49.00936,8.40935
1010068090,Durlacher Allee,93,76131,49.00538,8.43679
898522345,Am Entenfang,1,76185,49.01082,8.35999
801780832,Landauer Straße,2,76185,49.03068,8.36807
1039325429,Am Zwinger,8,76227,48.9987,8.47042
1103752735,Hohenzollernstraße,69,76135,48.99395,8.38517
800755773,Kaiserstraße,131,76133,49.00948,8.40527
50605267,Douglasstraße,7,76133,49.01119,8.3936
1005231867,Lessingstraße,16,76135,49.00884,8.38529
1131716908,Nottingham-Anlage,,76135,49.00892,8.38406
800753421,Kaiserstraße,156,76133,49.01008,8.39385
1174481966,Durlacher Allee,,76131,49.00622,8.43124
51774690,Passagehof,18,76133,49.01097,8.39731
1096746667,Am Mühlburger Bahnhof,10,76189,49.01547,8.35091
1039243154,Ochsentorstraße,17,76227,49.00077,8.47275
1005153891,Hermann-Veit-Straße,7,76135,48.99707,8.37751
1039880312,Pfinzstraße,46,76227,49.00136,8.47485
1178892199,Neureuter Straße,14,76185,49.02481,8.35734
1104303609,Waldstraße,73,76133,49.0077,8.39359
57565729,Neureuter Straße,14,76185,49.02481,8.35734
1112142141,Georg-Friedrich-Straße,34,76131,49.00867,8.42373
1001361207,Victor-Gollancz-Straße,,76137,48.99332,8.3975
50613047,Ständehausstraße,4,76133,49.00875,8.3999
57569332,Otto-Wels-Straße,35,76189,48.98505,8.36247
57556289,Hardeckstraße,16,76185,48.99617,8.36071
1039266252,Herrmann-Leichtlin-Straße,15,76185,48.99677,8.36029
800851109,,,76131,49.01327,8.39895
898512916,Wettersteinstraße,17,76228,48.97566,8.45255
1104115629,Amalienstraße,30,76133,49.00893,8.39176
1039880447,Julius-Bender-Straße,2,76139,49.02925,8.45773
800752609,Kaiserstraße,90,76133,49.00972,8.40168
844453784,Gottesauer Straße,6,76131,49.00833,8.41715
1039782018,Neureuter Straße,45,76185,49.02713,8.3579
1039782022,Grünhutstraße,1,76187,49.03719,8.35333
1131737494,Am Alten Graben,,76227,48.98706,8.4635
1174497902,Weinbrennerstraße,,76135,49.00707,8.37254
50612592,Pfinztalstraße,9,76227,48.99911,8.47382
1174481991,Otto-Wels-Straße,,76189,48.98568,8.36247
1070067179,Rheinstraße,,76185,49.01136,8.36448
57569346,Tiefentalstraße,10,76228,48.96924,8.47756
898522773,Gymnasiumstraße,1,76227,48.99849,8.47767
1039237014,Am Zwinger,3,76227,48.99867,8.47113
1005230915,Moldaustraße,16,76149,49.04773,8.39724
1039266212,Rommelstraße,5,76227,48.99441,8.4652
1039893321,Am Steinbruch,20,76227,49.00069,8.4825
1202649239,Erlachseeweg,,76227,48.98585,8.44693
1131725549,,,76189,48.99043,8.34208
1132504361,Ettlinger-Tor-Platz,1,76133,49.00564,8.4032
1070631394,Talstraße,67,76228,48.94708,8.47874
888611106,Ottostraße,18,76227,48.99698,8.43957
1204537642,Pforzheimer Straße,25,76227,49.0036,8.46927
1108686584,Amalienstraße,49,76133,49.00884,8.3919
1070084711,Kußmaulstraße,,76187,49.02412,8.37533
1193037874,Ottostraße,3,76227,48.99608,8.44768
1131716774,An der Sandgrube,1,76149,49.06281,8.37515
1039782020,Striederstraße,21,76131,49.0105,8.43689
1039246688,Gartenstraße,68,76135,49.00437,8.38495
1200819771,Lorbeerweg,3,76149,49.03656,8.39305
1039506026,Durmersheimer Straße,188,76189,48.99695,8.34609
1131716973,,,76187,49.02879,8.33008
1202791930,Am Schloß Gottesaue,,76131,49.00463,8.42741
1039823165,Horfstraße,3,76228,48.95573,8.46777
1131729655,Durlacher Allee,,76137,49.00384,8.43995
1148922679,Wichernstraße,5,76185,49.00896,8.36783
50604392,Bertholdstraße,,76131,49.00915,8.41898
1039814537,Erbprinzenstraße,13,76133,49.00742,8.40047
1112532961,Holtzstraße,6,76135,49.00241,8.38187
1148206679,Ottostraße,1,76227,48.99569,8.4499
1178879772,Auer Straße,58,76227,48.99449,8.46265
1039276304,Tiefentalstraße,8,76228,48.96878,8.47798
800851765,,,76133,49.00568,8.40202
1178851089,Albert-Braun-Straße,9,76189,48.98904,8.36037
800758515,Karlstraße,3,76133,49.01167,8.39526
1039782027,Lange Straße,2,76199,48.97236,8.40329
1193011563,Rheinstraße,56,76185,49.01249,8.35706
1005231203,Hertzstraße,16,76187,49.02324,8.36605
1039782029,Ettlinger-Tor-Platz,1,76133,49.00564,8.4032
1112420131,Rüppurrer Straße,102,76137,48.99634,8.41005
1017889010,Rheinstraße,45,76185,49.01113,8.36086
1131724014,Waidweg,,76189,49.00694,8.31311
50609433,Durlacher Allee,,76139,49.00482,8.44626
1024643518,Landauer Straße,10,76185,49.03073,8.367
1058544192,Langenackerstraße,14,76189,49.00538,8.33403
1011482224,Rappenstraße,5,76227,48.99989,8.47261
50604874,Schloßbezirk,1,76131,49.01338,8.40454
1039165984,Karlsruher Straße,77,76139,49.02613,8.45288
1039243183,Kiefernweg,2,76149,49.04786,8.39273
1024643519,Am Entenfang,6,76185,49.01068,8.35932
1193032992,Kaiserstraße,160,76133,49.0101,8.39328
1204323089,Durmersheimer Straße,,76189,48.99886,8.34887
1193012679,Maxau am Rhein,25,76187,49.04662,8.3122
1164922631,Bahnhofplatz,8,76137,48.99457,8.39969
801780850,Vorbergstraße,9,76228,48.97765,8.45747
57540650,,,76229,49.03832,8.4864
1108712202,Sudetenstraße,28,76187,49.03118,8.34529
998657226,Gablonzer Straße,13,76185,49.02317,8.35529
1039165971,Ettlinger Straße,7,76137,49.0024,8.40328
1193011458,Schubertstraße,3,76185,49.01275,8.37223
57562592,Amalienstraße,,76133,49.00824,8.39374
800766376,Ständehausstraße,2,76133,49.00869,8.4001
800748746,Herrenstraße,36,76133,49.00832,8.39767
1178852496,Nowackanlage,15,76137,49.00314,8.40443
1178851074,Mainstraße,50,76199,48.98322,8.39196
898512954,Schlesier Straße,47,76227,48.98748,8.45521
1039893134,Kapellenstraße,11,76131,49.00777,8.41509
801780859,Marienstraße,70,76137,48.99899,8.40824
1131737517,,,76227,49.00524,8.48268
1039277253,Mühlstraße,8,76229,49.00654,8.49668
1058556678,Bunsenstraße,18,76135,49.00472,8.37354
1039243147,Balinger Straße,2,76228,48.95579,8.47928
1132504359,Ettlinger-Tor-Platz,1,76133,49.00564,8.4032
1070067173,Kaiserallee,,76133,49.01099,8.3761
1039243139,Nelkenstraße,27,76135,49.00879,8.37608
1108687006,Waldstraße,12,76133,49.01093,8.39911
1005221348,Litzenhardtstraße,109,76135,48.98644,8.37955
1024168222,Neißer Straße,14,76139,49.03447,8.44421
1039286569,Bahnhofplatz,4,76137,48.99499,8.40137
1039880844,Kapellenstraße,68,76131,49.00679,8.41239
1017890559,Diakonissenstraße,2,76199,48.97235,8.40488
1104084911,Kaiserstraße,181,76133,49.0098,8.39911
1132232070,Durlacher Allee,34,76131,49.00805,8.42164
1131728647,Im Eschwinkel,,76199,48.98789,8.40006
1131729191,Ettlinger Allee,9,76199,48.98414,8.40432
1005358211,,,76137,48.99217,8.40211
1039257771,Lange Straße,72,76199,48.96766,8.39932
50611978,Hermann-Schneider-Allee,50,76189,48.99868,8.29405
1164958750,Hans-Sachs-Straße,2,76133,49.00966,8.38636
1010160944,Badener Straße,8,76227,48.99863,8.47659
57568242,Festplatz,2,76137,49.00308,8.40193
1202791873,Michelinstraße,4,76185,49.00661,8.35139
1174516013,Luisenstraße,,76137,49.00043,8.41853
1039880338,Am Wetterbach,37,76228,48.958,8.46673
57561450,Wiesenstraße,30,76228,48.95268,8.47114
1098053805,Sophienstraße,59,76133,49.00752,8.38921
1113023123,Weinweg,22,76131,49.00806,8.44297
898520336,Tennesseeallee,111,76149,49.02676,8.39038
1024643683,Kaiserallee,13,76133,49.0104,8.38366
1204820551,Weinweg,,76139,49.01055,8.44767
1005230776,Marxzeller Straße,32,76199,48.96386,8.40059
1110490874,Rappenwörtstraße,30,76189,49.00531,8.33115
1058556664,Kaiserallee,13,76133,49.0104,8.38366
1131737674,Zum Sportzentrum,3,76228,48.95245,8.51771
1131752850,Fettweisstraße,8,76189,49.00913,8.32778
57565557,Lorenzstraße,19,76135,49.00128,8.38308
935594454,Ohmstraße,5,76229,49.02582,8.4745
57562431,Ottostraße,22,76227,48.99683,8.43761
51774478,Pfinztalstraße,9,76227,48.99911,8.47382
1031198210,Pfauenstraße,62,76199,48.96779,8.40057
800056137,Ettlinger-Tor-Platz,1,76133,49.00564,8.40332
801780820,Eugen-Geck-Straße,4,76189,48.98559,8.3596
57561448,Kriegsstraße,139,76135,49.00563,8.37906
1039263458,Rheinstraße,34,76185,49.01123,8.3603
50611826,Schlossbergstraße,12,76228,48.97256,8.45459
800763622,Friedrichsplatz,1,76133,49.00861,8.40064
1108687022,Lützowstraße,14,76199,48.96837,8.40191
1204323164,Wolfartsweierer Straße,42,76137,48.99968,8.4275
57563181,Bahnhofplatz,1,76137,48.99449,8.4016
800056127,Kaiserstraße,219,76133,49.01005,8.39348
1193852522,Pfaffstraße,15,76227,48.99867,8.45488
1175957145,Killisfeldstraße,32,76227,48.99678,8.45657
50604814,Litzenhardtstraße,52,76135,48.98807,8.38113
1058545329,Brauerstraße,61,76137,48.99901,8.38622
1039321076,Am Mühlburger Bahnhof,1,76189,49.01437,8.35209
1178850946,Wilhelm-Leuschner-Straße,36,76189,48.98307,8.36545
1039893095,Christofstraße,23,76227,48.99981,8.46063
1161857570,Pfinztalstraße,83,76227,48.99985,8.46519
1193944814,Georg-Friedrich-Straße,30,76131,49.00896,8.42366
801780837,Karlsruher Straße,26,76139,49.02944,8.45718
50609426,Weißdornweg,,76149,49.03824,8.38864
1178851325,Breisgaustraße,9,76199,48.97123,8.40612
50613806,Am Sportpark,5,76131,49.02649,8.44128
1192311340,Waldstraße,30,76133,49.01022,8.39789
1132504370,Ettlinger-Tor-Platz,1,76133,49.00564,8.4032
1017889806,Karlstraße,49,76133,49.00515,8.39473
1024132964,Durmersheimer Straße,149,76189,48.99674,8.34628
844633932,Am Mühlburger Bahnhof,10,76189,49.01547,8.35091
1132504366,Ettlinger-Tor-Platz,1,76133,49.00564,8.4032
1174481940,Englerstraße,,76131,49.00932,8.41126
1039892871,Ruschgraben,17,76139,49.02946,8.45847
1039251454,Kaiserstraße,18,76133,49.00935,8.40978
1131737515,Im Breitbars-Brüchle,,76227,48.98973,8.46763
1201486332,Jean-Ritzert-Straße,,76227,48.9957,8.49125
1131722969,,,76185,49.00479,8.34626
1110490865,Ortsstraße,28,76228,48.95316,8.50959
1005232593,Am Storrenacker,6,76139,49.01937,8.46185
1104115631,Marstallstraße,10,76227,48.99853,8.47314
1070067520,Eckenerstraße,,76185,49.00153,8.34515
1193011971,Akademiestraße,7,76133,49.01178,8.39809
1039130161,Ettlinger-Tor-Platz,1,76133,49.00564,8.4032
1137762726,Am Storrenacker,3,76139,49.01838,8.4651
1017890491,Kaiserallee,61,76133,49.01075,8.37612
1039816068,Albring,5,76185,49.00421,8.34514
1017915055,Neißer Straße,12,76139,49.03516,8.44402
1039814535,Reinhold-Frank-Straße,67,76133,49.01295,8.38773
1005231257,Rintheimer Hauptstraße,67,76131,49.01418,8.44634
998237675,Gartenstraße,20,76133,49.00429,8.39498
800760008,Kaiserstraße,129,76133,49.00947,8.40566
1203176350,Kaiserstraße,80,76133,49.00964,8.4034
1039266245,Holderweg,13,76199,48.97723,8.40825
1070085531,Durlacher Allee,,76131,49.00892,8.41753
1193011129,Grünwinkler Straße,25,76135,48.98877,8.37706
1108695021,Südendstraße,2,76137,48.99832,8.39593
50605525,Gerwigstraße,47,76131,49.00845,8.43009
1024132903,Gottesauer Straße,6,76131,49.00838,8.41704
1108686631,Pfinztalstraße,56,76227,48.99923,8.47159
1110490829,Mannheimer Straße,51,76131,49.01703,8.44445
898106558,Lange Straße,28,76199,48.97089,8.40141
1070464354,Kaiserstraße,217,76133,49.01001,8.39462
1165537527,Ludwig-Erhard-Allee,4,76131,49.0053,8.41433
1108536746,Saarlandstraße,80,76187,49.03074,8.33986
1202397440,Ellmendinger Straße,74,76227,48.9936,8.45166
800762969,Wilhelmstraße,10,76137,49.00306,8.40556
1017890481,Daxlander Straße,72,76185,49.00738,8.34261
1070091399,Durlacher Allee,,76137,49.00614,8.43193
50609421,,,76189,49.00491,8.32228
50603204,Brauerstraße,1,76133,49.00471,8.38696
1039243164,Morgenstraße,22,76137,49.00107,8.41312
51774484,Kirchstraße,13,76229,49.00385,8.49796
1058650195,Wattstraße,6,76185,49.03247,8.35896
1201453878,Lissenstraße,6,76227,48.99537,8.45451
1005358208,Bahnhofplatz,1,76137,48.99449,8.4016
1100964674,Moltkestraße,4,76133,49.01429,8.39736
1126267109,Heubergstraße,4,76228,48.97729,8.45393
1100900878,,,76137,49.00114,8.40264
1039228303,Kanalweg,52,76149,49.03301,8.39147
800752839,Ettlinger Straße,5,76137,49.00267,8.40331
1178851816,Landauer Straße,12,76185,49.03073,8.36678
1178868046,Eckenerstraße,48,76185,49.00209,8.34543
1039879085,Dürerstraße,3,76149,49.04614,8.3815
1017890542,Karlstraße,52,76133,49.00386,8.39439
1039257764,Rheinstraße,55,76185,49.01135,8.35968
1039816635,Königsberger Straße,55,76139,49.03103,8.44044
1110490890,Karl-Friedrich-Straße,8,76133,49.00915,8.40356
1193011254,Ettlinger Straße,33,76137,48.99819,8.40395
800765857,Karl-Friedrich-Straße,15,76133,49.00785,8.40377
50604864,Am Schloß Gottesaue,,76131,49.00465,8.42741
50609435,Büchelbergstraße,,76229,49.00657,8.49602
1070084709,Franz-Lust-Straße,,76185,49.01928,8.37524
1178851136,Rastatter Straße,17,76199,48.9792,8.40348
1178852954,Bärenweg,33,76149,49.04508,8.38122
1174482000,Karlstor,,76133,49.00543,8.39476
1039130286,Bismarckstraße,37,76133,49.01299,8.39345
1039814904,Rüppurrer Straße,1,76137,49.00557,8.41055
1204816713,Hermann-Vollmer-Straße,,76187,49.03562,8.34448
1202448102,Kaiserstraße,223,76133,49.01006,8.39328
1039815628,Weinbrennerstraße,23,76135,49.00717,8.37219
1135445668,Ottostraße,10,76227,48.99652,8.44542
1108709985,Ostendstraße,19,76131,49.00563,8.41607
1161921750,Rintheimer Hauptstraße,,76131,49.01171,8.44062
1193012874,Neureuter Hauptstraße,300,76149,49.05511,8.38102
1178620326,Linkenheimer Landstraße,125,76149,49.03799,8.39415
800851035,Willy-Brandt-Allee,21,76131,49.01448,8.39817
801780824,Gabelsbergerstraße,19,76135,49.00661,8.37525
1005358213,,,76137,48.99217,8.40211
1039210458,Kaiserstraße,101,76133,49.0094,8.4077
1161921578,Unterfeldstraße,,76149,49.04718,8.37916
1039266227,Breisgaustraße,9,76199,48.97122,8.40612
1070418530,Durlacher Allee,111,76139,49.00503,8.4464
1039210489,Kaiserstraße,124,76133,49.00992,8.39726
50612296,Marktplatz,,76133,49.00925,8.40408
1017555763,,,76131,49.01092,8.40413
50609412,Am Schulberg,,76149,49.0479,8.36837
50605872,Rudolfstraße,31,76131,49.00835,8.42209
1039782038,Südbeckenstraße,22,76189,49.01322,8.33071
1039240966,Ebertstraße,9,76135,48.99439,8.3959
1193012346,Douglasstraße,11,76133,49.01072,8.39355
1017621238,Donauschwabenstraße,16,76149,49.05154,8.39594
51773558,Bahnhofplatz,2,76137,48.99507,8.40195
1204323125,,,76135,48.99065,8.37631
1110490884,Sophienstraße,121,76135,49.00785,8.37957
1178851278,Rosenweg,3,76199,48.97517,8.41145
1131730990,,,76131,49.00664,8.4153
1039262367,Baumeisterstraße,20,76137,49.00404,8.40652
1201927125,Heinrich-Wittmann-Straße,21,76131,49.00971,8.44279
1166074821,Sulzfelder Straße,,76131,49.0183,8.44486
1178852031,Gartenstraße,81,76135,49.00444,8.38243
800749510,Kaiserstraße,112,76133,49.00986,8.39874
1058663205,Heinrich-Heine-Ring,99,76199,48.96441,8.41376
1110491169,Karlsruher Straße,23,76139,49.02933,8.45714
1031851896,Wilhelm-Hausenstein-Allee,16,76187,49.02931,8.3704
50610483,Am Fasanengarten,,76131,49.0135,8.4205
1039892651,Staudingerstraße,3,76185,49.00896,8.36326
1039815346,Trierer Straße,6,76187,49.03369,8.37365
800760539,Karlstraße,19,76133,49.00941,8.39506
1070508716,Gerwigstraße,66,76131,49.0069,8.43745
1039243158,Ludwig-Marum-Straße,1,76185,49.01326,8.3746
800056132,Ettlinger-Tor-Platz,1,76133,49.00564,8.40332
1039814526,Ohiostraße,15,76149,49.0326,8.39399
50612787,Karl-Friedrich-Straße,10,76133,49.00858,8.40367
1001025595,Karlstraße,67,76137,49.00134,8.39427
801780328,Lindenplatz,,76185,49.0136,8.35933
1017917081,Otto-Wels-Straße,35,76189,48.9851,8.36247
50610478,Baumeisterstraße,9,76137,49.00429,8.40527
1204506529,Oskar-Hilpp-Platz,,76199,48.98766,8.43136
898106557,Lange Straße,28,76199,48.97089,8.40141
1174481980,Kreuzstraße,,76133,49.01072,8.40508
1141380294,Henri-Arnaud-Straße,5,76228,48.94701,8.48274
1144513514,Am Schloß Gottesaue,4,76131,49.00377,8.42668
1039243422,Hohleichweg,8,76189,49.00795,8.31776
1001488873,Schneidemühler Straße,14,76139,49.03569,8.43511
1192311791,Waldstraße,24,76133,49.01042,8.39823
801780818,Ostendorfplatz,4,76199,48.97634,8.40728
1070132232,,,76137,48.99444,8.40005
800759938,Kronenstraße,24,76133,49.00913,8.4086
50604512,Kaiserstraße,217,76133,49.01001,8.39462
1070063449,Ettlinger Straße,,76137,49.00494,8.40332
1163982617,Weinweg,22,76131,49.00806,8.44297
1166074875,Am Lustgarten,,76228,48.96749,8.47837
1031218935,Eggensteiner Straße,3,76187,49.03257,8.33615
1104115627,Karlstraße,42,76133,49.00627,8.39459
1024126211,Kriegsstraße,236,76135,49.00564,8.37967
1201467301,An der Tagweide,23,76139,49.02477,8.46175
1070460206,Siemensallee,77,76187,49.02918,8.34739
1024643543,Kiefernweg,20,76149,49.0494,8.39565
57568152,Diakonissenstraße,28,76199,48.97212,8.40942
1135003463,Am Mühlburger Bahnhof,12,76189,49.01629,8.35038
1005161569,Parzivalstraße,1,76139,49.03563,8.45886
1178852261,Augartenstraße,67,76137,48.99899,8.41134
1132504373,Ettlinger-Tor-Platz,1,76133,49.00564,8.4032
1138941532,Wattstraße,6,76185,49.03228,8.35886
1039880449,Rastatter Straße,1,76199,48.98051,8.40358
1001026860,Moltkestraße,24,76133,49.01542,8.39284
1039893026,Hardtstraße,3,76185,49.01067,8.35572
1017915040,Büchelbergstraße,2,76229,49.00652,8.49586
1039818395,Talwiesenstraße,29,76228,48.97785,8.45366
1204537886,Ottostraße,18,76227,48.99677,8.44399
1039104943,Ettlinger-Tor-Platz,1,76133,49.00564,8.4032
1148910990,Karlstraße,61,76133,49.00321,8.39452
1164824937,Rheinstraße,57,76185,49.01139,8.35958
50605859,Hildebrandstraße,24,76227,48.99578,8.45967
800763967,Akademiestraße,41,76133,49.01097,8.39574
1203173011,Stephanienstraße,60,76133,49.01135,8.39223
1039892568,Scheibenhardter Weg,23,76199,48.98109,8.39156
1164871054,Karlstraße,65,76137,49.00171,8.39438
50611214,Kaiserallee,11,76133,49.01043,8.38473
1039243398,Kärcherstraße,4,76185,49.01609,8.36228
1110486282,Bärenweg,37,76149,49.04482,8.38162
800765325,Englerstraße,12,76131,49.01053,8.41112
1039266247,Douglasstraße,24,76133,49.00939,8.3934
1017027839,Hinterm Hauptbahnhof,,76137,48.9916,8.3982
1141613037,Sophienstraße,135,76135,49.00794,8.37783
1031795144,Steubenstraße,18,76185,49.01677,8.36119
1179906945,Kaiserstraße,72,76133,49.00957,8.40444
1164959247,Bahnhofplatz,1,76137,48.99443,8.40134
1126227270,Talstraße,43,76228,48.9462,8.48201
1017889740,Schwetzinger Straße,4,76139,49.03096,8.45892
1039212964,Rappenstraße,2,76227,48.9995,8.47267
1193033299,Frauenhäusleweg,1,76187,49.03562,8.33027
1104101725,Ettlinger-Tor-Platz,1,76133,49.00564,8.4032
800851062,Ritterstraße,,76133,49.00831,8.40018
1031198223,Am Grollenberg,2,76229,49.00196,8.49791
1112455259,Kaiserallee,58,76185,49.01136,8.36756
1178604480,Insterburger Straße,16,76139,49.03762,8.43741
1178851040,Woerishofferstraße,4,76189,48.98077,8.36912
1193016363,Scheffelstraße,55,76135,49.00631,8.38176
57567735,Hangstraße,2,76228,48.97577,8.45581
1131737506,Alte Weingartener Straße,40,76227,49.00436,8.48009
1039782010,Hörgelstraße,10,76228,48.97769,8.45393
1175384049,Gewann Langenheck,1,76227,48.98484,8.43966
1039243159,Uhlandstraße,26,76135,49.0093,8.37489
50603376,Linkenheimer Landstraße,96,76149,49.03333,8.39499
1058701749,Rhode-Island-Allee,,76149,49.02076,8.3854
1039243137,Rubensstraße,21,76149,49.04437,8.3831
57553199,Willy-Brandt-Allee,3,76131,49.01584,8.39799
1192341354,Elsa-Brändström-Straße,,76228,48.97172,8.4682
1113027304,Eichelbergstraße,34,76189,48.99832,8.35001
801751068,Haid-und-Neu-Straße,39,76131,49.01407,8.43068
1005224146,Wichernstraße,10,76185,49.00677,8.368
50609427,Hermann-Schneider-Allee,,76189,48.99877,8.29414
1031412324,Waldhornstraße,,76131,49.01149,8.40767
1204820412,,,76227,48.99732,8.45877
1070091394,Hauptbahnstraße,,76227,49.00168,8.46269
898512832,Eggensteiner Straße,17,76187,49.03481,8.34043
1178852284,Bürgerstraße,16,76133,49.00796,8.39574
1005220932,Südendstraße,54,76135,48.9989,8.38182
1178868231,Wilhelm-Leuschner-Straße,36,76189,48.98307,8.36545
1174482025,Am Alten Bahnhof,,76149,49.04722,8.37843
1023773293,Gottesauer Straße,6,76131,49.00833,8.41715
1192312184,Waldstraße,30,76133,49.01022,8.39789
1039212938,Kornweg,33,76185,49.00546,8.34104
1058713708,Sophienstraße,74,76135,49.00773,8.38578
1131730631,Mannheimer Straße,2,76131,49.01188,8.43972
1132504737,Ettlinger-Tor-Platz,1,76133,49.00564,8.4032
1193028461,Bürgerstraße,7,76133,49.00805,8.39595
1070067176,Kaiserallee,,76133,49.01069,8.38147
1039243132,Sophienstraße,35,76133,49.00696,8.39127
1206226607,August-Bebel-Straße,89,76187,49.02645,8.37054
57569329,Durlacher Allee,,76139,49.00484,8.44622
1193011935,Steinstraße,31,76133,49.00727,8.40653
1164903087,Karlstraße,46,76133,49.00511,8.39449
57567919,Gottesauer Straße,6,76131,49.00833,8.41715
1110490889,Karl-Friedrich-Straße,8,76133,49.00915,8.40356
50609415,Am Sportpark,,76131,49.0274,8.44162
1137762518,Erbprinzenstraße,29,76133,49.00895,8.39701
1039211644,Ettlinger-Tor-Platz,1,76133,49.00564,8.4032
1148725232,Kaiserstraße,215,76133,49.00998,8.39529
57565931,Gottesauer Straße,6,76131,49.00833,8.41715
1104303630,Ettlinger-Tor-Platz,1,76133,49.00564,8.4032
800764452,Ettlinger Straße,2,76137,49.00454,8.40325
1017890478,Östliche Rheinbrückenstraße,27,76187,49.03084,8.3415
1178850867,Römerstraße,7,76189,49.00384,8.33693
1031198246,Geibelstraße,5,76185,49.01327,8.36129
1039893318,Scheibenhardter Weg,23,76199,48.98109,8.39156
1039266218,Wilhelmstraße,75,76137,48.99879,8.40586
1070085016,Unterfeldstraße,,76149,49.04453,8.37437
1058551465,Karlstraße,99,76137,48.99808,8.39382
1031820042,Königsberger Straße,5,76139,49.0334,8.43239
1161082238,Unterfeldstraße,,76149,49.04688,8.37852
1178879786,Beuthener Straße,16,76139,49.03481,8.44788
1193011247,Rüppurrer Straße,78,76137,48.99876,8.41066
1023826375,Lauterbergstraße,1,76137,48.99635,8.40483
998752441,Am Storrenacker,1,76139,49.01892,8.46345
1039321041,Windeckstraße,,76135,48.98957,8.37225
1039243182,Scheffelstraße,58,76135,49.00661,8.38169
1132232879,Am Storrenacker,3,76139,49.01838,8.4651
50611620,Rubensstraße,21,76149,49.04437,8.3831
800756246,Herrenstraße,22,76133,49.00935,8.39892
1161921753,Am Mühlburger Bahnhof,,76189,49.01476,8.35219
1148921128,Karlstraße,115,76137,48.99699,8.39374
1058556702,Werderstraße,40,76137,49.00144,8.40706
57567729,Rintheimer Straße,82,76131,49.01133,8.43513
1192341353,,,76228,48.97335,8.47311
